{
"type": "FeatureCollection",
"name": "mrt_admincapitals",
"crs": { "type": "name", "properties": { "name": "urn:ogc:def:crs:OGC:1.3:CRS84" } },
"features": [
{ "type": "Feature", "properties": { "adm_p_lvl": 1, "name": "Aioun el Atrouss", "name_1": null, "name_2": null, "name_3": null, "loc_pcode": null, "x_coord": -9.6149, "y_coord": 16.6614, "adm3_name": "Aioun", "adm3_name1": null, "adm3_name2": null, "adm3_name3": null, "adm3_pcode": "MR00800101", "adm2_name": "Aioun", "adm2_name1": null, "adm2_name2": null, "adm2_name3": null, "adm2_pcode": "MR008001", "adm1_name": "Hodh El Gharbi", "adm1_name1": null, "adm1_name2": null, "adm1_name3": null, "adm1_pcode": "MR008", "adm0_name": "Mauritania", "adm0_name1": null, "adm0_name2": null, "adm0_name3": null, "adm0_pcode": "MR", "valid_on": "2024-03-26", "valid_to": null, "version": "v03", "name_lng": null, "name_lng1": null, "name_lng2": null, "name_lng3": null }, "geometry": { "type": "Point", "coordinates": [ -9.6149, 16.6614 ] } },
{ "type": "Feature", "properties": { "adm_p_lvl": 1, "name": "Akjoujt", "name_1": null, "name_2": null, "name_3": null, "loc_pcode": null, "x_coord": -14.416389, "y_coord": 19.696944, "adm3_name": "Akjoujt 2", "adm3_name1": null, "adm3_name2": null, "adm3_name3": null, "adm3_pcode": "MR00900003", "adm2_name": "Akjoujt", "adm2_name1": null, "adm2_name2": null, "adm2_name3": null, "adm2_pcode": "MR009000", "adm1_name": "Inchiri", "adm1_name1": null, "adm1_name2": null, "adm1_name3": null, "adm1_pcode": "MR009", "adm0_name": "Mauritania", "adm0_name1": null, "adm0_name2": null, "adm0_name3": null, "adm0_pcode": "MR", "valid_on": "2024-03-26", "valid_to": null, "version": "v03", "name_lng": null, "name_lng1": null, "name_lng2": null, "name_lng3": null }, "geometry": { "type": "Point", "coordinates": [ -14.416389, 19.696944 ] } },
{ "type": "Feature", "properties": { "adm_p_lvl": 1, "name": "Aleg", "name_1": null, "name_2": null, "name_3": null, "loc_pcode": null, "x_coord": -13.9209, "y_coord": 17.0481, "adm3_name": "Aleg", "adm3_name1": null, "adm3_name2": null, "adm3_name3": null, "adm3_pcode": "MR00300101", "adm2_name": "Aleg", "adm2_name1": null, "adm2_name2": null, "adm2_name3": null, "adm2_pcode": "MR003001", "adm1_name": "Brakna", "adm1_name1": null, "adm1_name2": null, "adm1_name3": null, "adm1_pcode": "MR003", "adm0_name": "Mauritania", "adm0_name1": null, "adm0_name2": null, "adm0_name3": null, "adm0_pcode": "MR", "valid_on": "2024-03-26", "valid_to": null, "version": "v03", "name_lng": null, "name_lng1": null, "name_lng2": null, "name_lng3": null }, "geometry": { "type": "Point", "coordinates": [ -13.9209, 17.0481 ] } },
{ "type": "Feature", "properties": { "adm_p_lvl": 2, "name": "Amourj", "name_1": null, "name_2": null, "name_3": null, "loc_pcode": null, "x_coord": -7.2185, "y_coord": 16.1098, "adm3_name": "Amourj", "adm3_name1": null, "adm3_name2": null, "adm3_name3": null, "adm3_pcode": "MR00700101", "adm2_name": "Amourj", "adm2_name1": null, "adm2_name2": null, "adm2_name3": null, "adm2_pcode": "MR007001", "adm1_name": "Hodh El Chargi", "adm1_name1": null, "adm1_name2": null, "adm1_name3": null, "adm1_pcode": "MR007", "adm0_name": "Mauritania", "adm0_name1": null, "adm0_name2": null, "adm0_name3": null, "adm0_pcode": "MR", "valid_on": "2024-03-26", "valid_to": null, "version": "v03", "name_lng": null, "name_lng1": null, "name_lng2": null, "name_lng3": null }, "geometry": { "type": "Point", "coordinates": [ -7.2185, 16.1098 ] } },
{ "type": "Feature", "properties": { "adm_p_lvl": 2, "name": "Aoujeft", "name_1": null, "name_2": null, "name_3": null, "loc_pcode": null, "x_coord": -13.059444, "y_coord": 19.962222, "adm3_name": "Aoujeft", "adm3_name1": null, "adm3_name2": null, "adm3_name3": null, "adm3_pcode": "MR00100101", "adm2_name": "Aoujeft", "adm2_name1": null, "adm2_name2": null, "adm2_name3": null, "adm2_pcode": "MR001001", "adm1_name": "Adrar", "adm1_name1": null, "adm1_name2": null, "adm1_name3": null, "adm1_pcode": "MR001", "adm0_name": "Mauritania", "adm0_name1": null, "adm0_name2": null, "adm0_name3": null, "adm0_pcode": "MR", "valid_on": "2024-03-26", "valid_to": null, "version": "v03", "name_lng": null, "name_lng1": null, "name_lng2": null, "name_lng3": null }, "geometry": { "type": "Point", "coordinates": [ -13.059443999999871, 19.962222 ] } },
{ "type": "Feature", "properties": { "adm_p_lvl": 1, "name": "Atar", "name_1": null, "name_2": null, "name_3": null, "loc_pcode": null, "x_coord": -13.049865, "y_coord": 20.516864, "adm3_name": "Atar", "adm3_name1": null, "adm3_name2": null, "adm3_name3": null, "adm3_pcode": "MR00100201", "adm2_name": "Atar", "adm2_name1": null, "adm2_name2": null, "adm2_name3": null, "adm2_pcode": "MR001002", "adm1_name": "Adrar", "adm1_name1": null, "adm1_name2": null, "adm1_name3": null, "adm1_pcode": "MR001", "adm0_name": "Mauritania", "adm0_name1": null, "adm0_name2": null, "adm0_name3": null, "adm0_pcode": "MR", "valid_on": "2024-03-26", "valid_to": null, "version": "v03", "name_lng": null, "name_lng1": null, "name_lng2": null, "name_lng3": null }, "geometry": { "type": "Point", "coordinates": [ -13.049864999999897, 20.516864000000169 ] } },
{ "type": "Feature", "properties": { "adm_p_lvl": 2, "name": "Bababe", "name_1": null, "name_2": null, "name_3": null, "loc_pcode": null, "x_coord": -13.952867, "y_coord": 16.3371, "adm3_name": "Bababe", "adm3_name1": null, "adm3_name2": null, "adm3_name3": null, "adm3_pcode": "MR00300201", "adm2_name": "Bababe", "adm2_name1": null, "adm2_name2": null, "adm2_name3": null, "adm2_pcode": "MR003002", "adm1_name": "Brakna", "adm1_name1": null, "adm1_name2": null, "adm1_name3": null, "adm1_pcode": "MR003", "adm0_name": "Mauritania", "adm0_name1": null, "adm0_name2": null, "adm0_name3": null, "adm0_pcode": "MR", "valid_on": "2024-03-26", "valid_to": null, "version": "v03", "name_lng": null, "name_lng1": null, "name_lng2": null, "name_lng3": null }, "geometry": { "type": "Point", "coordinates": [ -13.952867, 16.337100000000135 ] } },
{ "type": "Feature", "properties": { "adm_p_lvl": 2, "name": "Barkeol", "name_1": null, "name_2": null, "name_3": null, "loc_pcode": null, "x_coord": -12.498493, "y_coord": 16.640389, "adm3_name": "El Ghabra", "adm3_name1": null, "adm3_name2": null, "adm3_name3": null, "adm3_pcode": "MR00200106", "adm2_name": "Barkeol", "adm2_name1": null, "adm2_name2": null, "adm2_name3": null, "adm2_pcode": "MR002001", "adm1_name": "Assaba", "adm1_name1": null, "adm1_name2": null, "adm1_name3": null, "adm1_pcode": "MR002", "adm0_name": "Mauritania", "adm0_name1": null, "adm0_name2": null, "adm0_name3": null, "adm0_pcode": "MR", "valid_on": "2024-03-26", "valid_to": null, "version": "v03", "name_lng": null, "name_lng1": null, "name_lng2": null, "name_lng3": null }, "geometry": { "type": "Point", "coordinates": [ -12.498493, 16.640389000000141 ] } },
{ "type": "Feature", "properties": { "adm_p_lvl": 2, "name": "Bassikounou", "name_1": null, "name_2": null, "name_3": null, "loc_pcode": null, "x_coord": -5.9468, "y_coord": 15.8656, "adm3_name": "Bassikounou", "adm3_name1": null, "adm3_name2": null, "adm3_name3": null, "adm3_pcode": "MR00700201", "adm2_name": "Bassikounou", "adm2_name1": null, "adm2_name2": null, "adm2_name3": null, "adm2_pcode": "MR007002", "adm1_name": "Hodh El Chargi", "adm1_name1": null, "adm1_name2": null, "adm1_name3": null, "adm1_pcode": "MR007", "adm0_name": "Mauritania", "adm0_name1": null, "adm0_name2": null, "adm0_name3": null, "adm0_pcode": "MR", "valid_on": "2024-03-26", "valid_to": null, "version": "v03", "name_lng": null, "name_lng1": null, "name_lng2": null, "name_lng3": null }, "geometry": { "type": "Point", "coordinates": [ -5.946799999999826, 15.8656 ] } },
{ "type": "Feature", "properties": { "adm_p_lvl": 2, "name": "Boghe", "name_1": null, "name_2": null, "name_3": null, "loc_pcode": null, "x_coord": -14.270581, "y_coord": 16.580324, "adm3_name": "Boghe", "adm3_name1": null, "adm3_name2": null, "adm3_name3": null, "adm3_pcode": "MR00300301", "adm2_name": "Boghe", "adm2_name1": null, "adm2_name2": null, "adm2_name3": null, "adm2_pcode": "MR003003", "adm1_name": "Brakna", "adm1_name1": null, "adm1_name2": null, "adm1_name3": null, "adm1_pcode": "MR003", "adm0_name": "Mauritania", "adm0_name1": null, "adm0_name2": null, "adm0_name3": null, "adm0_pcode": "MR", "valid_on": "2024-03-26", "valid_to": null, "version": "v03", "name_lng": null, "name_lng1": null, "name_lng2": null, "name_lng3": null }, "geometry": { "type": "Point", "coordinates": [ -14.270580999999822, 16.580324 ] } },
{ "type": "Feature", "properties": { "adm_p_lvl": 2, "name": "Boumdeid", "name_1": null, "name_2": null, "name_3": null, "loc_pcode": null, "x_coord": -11.3434, "y_coord": 17.4454, "adm3_name": "Boumdeid", "adm3_name1": null, "adm3_name2": null, "adm3_name3": null, "adm3_pcode": "MR00200201", "adm2_name": "Boumdeid", "adm2_name1": null, "adm2_name2": null, "adm2_name3": null, "adm2_pcode": "MR002002", "adm1_name": "Assaba", "adm1_name1": null, "adm1_name2": null, "adm1_name3": null, "adm1_pcode": "MR002", "adm0_name": "Mauritania", "adm0_name1": null, "adm0_name2": null, "adm0_name3": null, "adm0_pcode": "MR", "valid_on": "2024-03-26", "valid_to": null, "version": "v03", "name_lng": null, "name_lng1": null, "name_lng2": null, "name_lng3": null }, "geometry": { "type": "Point", "coordinates": [ -11.3434, 17.4454 ] } },
{ "type": "Feature", "properties": { "adm_p_lvl": 2, "name": "Boutilimit", "name_1": null, "name_2": null, "name_3": null, "loc_pcode": null, "x_coord": -14.6944, "y_coord": 17.5467, "adm3_name": "Boutilimit", "adm3_name1": null, "adm3_name2": null, "adm3_name3": null, "adm3_pcode": "MR01300101", "adm2_name": "Boutilimit", "adm2_name1": null, "adm2_name2": null, "adm2_name3": null, "adm2_pcode": "MR013001", "adm1_name": "Trarza", "adm1_name1": null, "adm1_name2": null, "adm1_name3": null, "adm1_pcode": "MR013", "adm0_name": "Mauritania", "adm0_name1": null, "adm0_name2": null, "adm0_name3": null, "adm0_pcode": "MR", "valid_on": "2024-03-26", "valid_to": null, "version": "v03", "name_lng": null, "name_lng1": null, "name_lng2": null, "name_lng3": null }, "geometry": { "type": "Point", "coordinates": [ -14.6944, 17.546700000000101 ] } },
{ "type": "Feature", "properties": { "adm_p_lvl": 2, "name": "Chinguetti", "name_1": null, "name_2": null, "name_3": null, "loc_pcode": null, "x_coord": -12.262204, "y_coord": 20.440359, "adm3_name": "Chinguity", "adm3_name1": null, "adm3_name2": null, "adm3_name3": null, "adm3_pcode": "MR00100301", "adm2_name": "Chinguity", "adm2_name1": null, "adm2_name2": null, "adm2_name3": null, "adm2_pcode": "MR001003", "adm1_name": "Adrar", "adm1_name1": null, "adm1_name2": null, "adm1_name3": null, "adm1_pcode": "MR001", "adm0_name": "Mauritania", "adm0_name1": null, "adm0_name2": null, "adm0_name3": null, "adm0_pcode": "MR", "valid_on": "2024-03-26", "valid_to": null, "version": "v03", "name_lng": null, "name_lng1": null, "name_lng2": null, "name_lng3": null }, "geometry": { "type": "Point", "coordinates": [ -12.262203999999883, 20.440359000000171 ] } },
{ "type": "Feature", "properties": { "adm_p_lvl": 2, "name": "Guerou", "name_1": null, "name_2": null, "name_3": null, "loc_pcode": null, "x_coord": -11.8359, "y_coord": 16.8177, "adm3_name": "Guerou", "adm3_name1": null, "adm3_name2": null, "adm3_name3": null, "adm3_pcode": "MR00200301", "adm2_name": "Guerrou", "adm2_name1": null, "adm2_name2": null, "adm2_name3": null, "adm2_pcode": "MR002003", "adm1_name": "Assaba", "adm1_name1": null, "adm1_name2": null, "adm1_name3": null, "adm1_pcode": "MR002", "adm0_name": "Mauritania", "adm0_name1": null, "adm0_name2": null, "adm0_name3": null, "adm0_pcode": "MR", "valid_on": "2024-03-26", "valid_to": null, "version": "v03", "name_lng": null, "name_lng1": null, "name_lng2": null, "name_lng3": null }, "geometry": { "type": "Point", "coordinates": [ -11.8359, 16.817700000000173 ] } },
{ "type": "Feature", "properties": { "adm_p_lvl": 1, "name": "Kaedi", "name_1": null, "name_2": null, "name_3": null, "loc_pcode": null, "x_coord": -13.504739, "y_coord": 16.14653, "adm3_name": "Kaedi", "adm3_name1": null, "adm3_name2": null, "adm3_name3": null, "adm3_pcode": "MR00500101", "adm2_name": "Kaedi", "adm2_name1": null, "adm2_name2": null, "adm2_name3": null, "adm2_pcode": "MR005001", "adm1_name": "Gorgol", "adm1_name1": null, "adm1_name2": null, "adm1_name3": null, "adm1_pcode": "MR005", "adm0_name": "Mauritania", "adm0_name1": null, "adm0_name2": null, "adm0_name3": null, "adm0_pcode": "MR", "valid_on": "2024-03-26", "valid_to": null, "version": "v03", "name_lng": null, "name_lng1": null, "name_lng2": null, "name_lng3": null }, "geometry": { "type": "Point", "coordinates": [ -13.504739, 16.146530000000155 ] } },
{ "type": "Feature", "properties": { "adm_p_lvl": 2, "name": "Kankossa", "name_1": null, "name_2": null, "name_3": null, "loc_pcode": null, "x_coord": -11.527006, "y_coord": 15.938907, "adm3_name": "Kankossa", "adm3_name1": null, "adm3_name2": null, "adm3_name3": null, "adm3_pcode": "MR00200401", "adm2_name": "Kankossa", "adm2_name1": null, "adm2_name2": null, "adm2_name3": null, "adm2_pcode": "MR002004", "adm1_name": "Assaba", "adm1_name1": null, "adm1_name2": null, "adm1_name3": null, "adm1_pcode": "MR002", "adm0_name": "Mauritania", "adm0_name1": null, "adm0_name2": null, "adm0_name3": null, "adm0_pcode": "MR", "valid_on": "2024-03-26", "valid_to": null, "version": "v03", "name_lng": null, "name_lng1": null, "name_lng2": null, "name_lng3": null }, "geometry": { "type": "Point", "coordinates": [ -11.527006, 15.938907000000142 ] } },
{ "type": "Feature", "properties": { "adm_p_lvl": 2, "name": "KeurMassene", "name_1": null, "name_2": null, "name_3": null, "loc_pcode": null, "x_coord": -16.214909, "y_coord": 16.538477, "adm3_name": "Keur Macene", "adm3_name1": null, "adm3_name2": null, "adm3_name3": null, "adm3_pcode": "MR01300201", "adm2_name": "Keur-Macene", "adm2_name1": null, "adm2_name2": null, "adm2_name3": null, "adm2_pcode": "MR013002", "adm1_name": "Trarza", "adm1_name1": null, "adm1_name2": null, "adm1_name3": null, "adm1_pcode": "MR013", "adm0_name": "Mauritania", "adm0_name1": null, "adm0_name2": null, "adm0_name3": null, "adm0_pcode": "MR", "valid_on": "2024-03-26", "valid_to": null, "version": "v03", "name_lng": null, "name_lng1": null, "name_lng2": null, "name_lng3": null }, "geometry": { "type": "Point", "coordinates": [ -16.214909, 16.538477000000114 ] } },
{ "type": "Feature", "properties": { "adm_p_lvl": 1, "name": "Kiffa", "name_1": null, "name_2": null, "name_3": null, "loc_pcode": null, "x_coord": -11.404531, "y_coord": 16.616587, "adm3_name": "Kiffa", "adm3_name1": null, "adm3_name2": null, "adm3_name3": null, "adm3_pcode": "MR00200501", "adm2_name": "Kiffa", "adm2_name1": null, "adm2_name2": null, "adm2_name3": null, "adm2_pcode": "MR002005", "adm1_name": "Assaba", "adm1_name1": null, "adm1_name2": null, "adm1_name3": null, "adm1_pcode": "MR002", "adm0_name": "Mauritania", "adm0_name1": null, "adm0_name2": null, "adm0_name3": null, "adm0_pcode": "MR", "valid_on": "2024-03-26", "valid_to": null, "version": "v03", "name_lng": null, "name_lng1": null, "name_lng2": null, "name_lng3": null }, "geometry": { "type": "Point", "coordinates": [ -11.404531, 16.616587 ] } },
{ "type": "Feature", "properties": { "adm_p_lvl": 2, "name": "Kobenni", "name_1": null, "name_2": null, "name_3": null, "loc_pcode": null, "x_coord": -9.365278, "y_coord": 15.817222, "adm3_name": "Kobenni", "adm3_name1": null, "adm3_name2": null, "adm3_name3": null, "adm3_pcode": "MR00800201", "adm2_name": "Kobeni", "adm2_name1": null, "adm2_name2": null, "adm2_name3": null, "adm2_pcode": "MR008002", "adm1_name": "Hodh El Gharbi", "adm1_name1": null, "adm1_name2": null, "adm1_name3": null, "adm1_pcode": "MR008", "adm0_name": "Mauritania", "adm0_name1": null, "adm0_name2": null, "adm0_name3": null, "adm0_pcode": "MR", "valid_on": "2024-03-26", "valid_to": null, "version": "v03", "name_lng": null, "name_lng1": null, "name_lng2": null, "name_lng3": null }, "geometry": { "type": "Point", "coordinates": [ -9.365278, 15.817222 ] } },
{ "type": "Feature", "properties": { "adm_p_lvl": 2, "name": "Maghama", "name_1": null, "name_2": null, "name_3": null, "loc_pcode": null, "x_coord": -12.850055, "y_coord": 15.509153, "adm3_name": "Maghama", "adm3_name1": null, "adm3_name2": null, "adm3_name3": null, "adm3_pcode": "MR00500201", "adm2_name": "Maghama", "adm2_name1": null, "adm2_name2": null, "adm2_name3": null, "adm2_pcode": "MR005002", "adm1_name": "Gorgol", "adm1_name1": null, "adm1_name2": null, "adm1_name3": null, "adm1_pcode": "MR005", "adm0_name": "Mauritania", "adm0_name1": null, "adm0_name2": null, "adm0_name3": null, "adm0_pcode": "MR", "valid_on": "2024-03-26", "valid_to": null, "version": "v03", "name_lng": null, "name_lng1": null, "name_lng2": null, "name_lng3": null }, "geometry": { "type": "Point", "coordinates": [ -12.850055, 15.509153 ] } },
{ "type": "Feature", "properties": { "adm_p_lvl": 2, "name": "Magta-lahjar", "name_1": null, "name_2": null, "name_3": null, "loc_pcode": null, "x_coord": -13.0927, "y_coord": 17.506005, "adm3_name": "Maghta Lahjar", "adm3_name1": null, "adm3_name2": null, "adm3_name3": null, "adm3_pcode": "MR00300401", "adm2_name": "Maghta Lahjar", "adm2_name1": null, "adm2_name2": null, "adm2_name3": null, "adm2_pcode": "MR003004", "adm1_name": "Brakna", "adm1_name1": null, "adm1_name2": null, "adm1_name3": null, "adm1_pcode": "MR003", "adm0_name": "Mauritania", "adm0_name1": null, "adm0_name2": null, "adm0_name3": null, "adm0_pcode": "MR", "valid_on": "2024-03-26", "valid_to": null, "version": "v03", "name_lng": null, "name_lng1": null, "name_lng2": null, "name_lng3": null }, "geometry": { "type": "Point", "coordinates": [ -13.0927, 17.506005 ] } },
{ "type": "Feature", "properties": { "adm_p_lvl": 2, "name": "Mbagne", "name_1": null, "name_2": null, "name_3": null, "loc_pcode": null, "x_coord": -13.792582, "y_coord": 16.144974, "adm3_name": "Mbagne", "adm3_name1": null, "adm3_name2": null, "adm3_name3": null, "adm3_pcode": "MR00300501", "adm2_name": "M'Bagne", "adm2_name1": null, "adm2_name2": null, "adm2_name3": null, "adm2_pcode": "MR003005", "adm1_name": "Brakna", "adm1_name1": null, "adm1_name2": null, "adm1_name3": null, "adm1_pcode": "MR003", "adm0_name": "Mauritania", "adm0_name1": null, "adm0_name2": null, "adm0_name3": null, "adm0_pcode": "MR", "valid_on": "2024-03-26", "valid_to": null, "version": "v03", "name_lng": null, "name_lng1": null, "name_lng2": null, "name_lng3": null }, "geometry": { "type": "Point", "coordinates": [ -13.792582, 16.144974 ] } },
{ "type": "Feature", "properties": { "adm_p_lvl": 2, "name": "Mbout", "name_1": null, "name_2": null, "name_3": null, "loc_pcode": null, "x_coord": -12.583789, "y_coord": 16.021568, "adm3_name": "Mbout", "adm3_name1": null, "adm3_name2": null, "adm3_name3": null, "adm3_pcode": "MR00500301", "adm2_name": "M'Bout", "adm2_name1": null, "adm2_name2": null, "adm2_name3": null, "adm2_pcode": "MR005003", "adm1_name": "Gorgol", "adm1_name1": null, "adm1_name2": null, "adm1_name3": null, "adm1_pcode": "MR005", "adm0_name": "Mauritania", "adm0_name1": null, "adm0_name2": null, "adm0_name3": null, "adm0_pcode": "MR", "valid_on": "2024-03-26", "valid_to": null, "version": "v03", "name_lng": null, "name_lng1": null, "name_lng2": null, "name_lng3": null }, "geometry": { "type": "Point", "coordinates": [ -12.583789, 16.021568 ] } },
{ "type": "Feature", "properties": { "adm_p_lvl": 2, "name": "Mederdra", "name_1": null, "name_2": null, "name_3": null, "loc_pcode": null, "x_coord": -15.756111, "y_coord": 16.896389, "adm3_name": "El Khat", "adm3_name1": null, "adm3_name2": null, "adm3_name3": null, "adm3_pcode": "MR01300304", "adm2_name": "Mederdra", "adm2_name1": null, "adm2_name2": null, "adm2_name3": null, "adm2_pcode": "MR013003", "adm1_name": "Trarza", "adm1_name1": null, "adm1_name2": null, "adm1_name3": null, "adm1_pcode": "MR013", "adm0_name": "Mauritania", "adm0_name1": null, "adm0_name2": null, "adm0_name3": null, "adm0_pcode": "MR", "valid_on": "2024-03-26", "valid_to": null, "version": "v03", "name_lng": null, "name_lng1": null, "name_lng2": null, "name_lng3": null }, "geometry": { "type": "Point", "coordinates": [ -15.756111, 16.896389 ] } },
{ "type": "Feature", "properties": { "adm_p_lvl": 2, "name": "Monguel", "name_1": null, "name_2": null, "name_3": null, "loc_pcode": null, "x_coord": -13.14087, "y_coord": 16.423607, "adm3_name": "Monguel", "adm3_name1": null, "adm3_name2": null, "adm3_name3": null, "adm3_pcode": "MR00500401", "adm2_name": "Monguel", "adm2_name1": null, "adm2_name2": null, "adm2_name3": null, "adm2_pcode": "MR005004", "adm1_name": "Gorgol", "adm1_name1": null, "adm1_name2": null, "adm1_name3": null, "adm1_pcode": "MR005", "adm0_name": "Mauritania", "adm0_name1": null, "adm0_name2": null, "adm0_name3": null, "adm0_pcode": "MR", "valid_on": "2024-03-26", "valid_to": null, "version": "v03", "name_lng": null, "name_lng1": null, "name_lng2": null, "name_lng3": null }, "geometry": { "type": "Point", "coordinates": [ -13.140869999999893, 16.423607000000118 ] } },
{ "type": "Feature", "properties": { "adm_p_lvl": 2, "name": "Moudjeria", "name_1": null, "name_2": null, "name_3": null, "loc_pcode": null, "x_coord": -12.331847, "y_coord": 17.873645, "adm3_name": "Moudjeria", "adm3_name1": null, "adm3_name2": null, "adm3_name3": null, "adm3_pcode": "MR01100101", "adm2_name": "Moudjeria", "adm2_name1": null, "adm2_name2": null, "adm2_name3": null, "adm2_pcode": "MR011001", "adm1_name": "Tagant", "adm1_name1": null, "adm1_name2": null, "adm1_name3": null, "adm1_pcode": "MR011", "adm0_name": "Mauritania", "adm0_name1": null, "adm0_name2": null, "adm0_name3": null, "adm0_pcode": "MR", "valid_on": "2024-03-26", "valid_to": null, "version": "v03", "name_lng": null, "name_lng1": null, "name_lng2": null, "name_lng3": null }, "geometry": { "type": "Point", "coordinates": [ -12.331847, 17.873645 ] } },
{ "type": "Feature", "properties": { "adm_p_lvl": 1, "name": "Nema", "name_1": null, "name_2": null, "name_3": null, "loc_pcode": null, "x_coord": -7.2535, "y_coord": 16.6162, "adm3_name": "Nema", "adm3_name1": null, "adm3_name2": null, "adm3_name3": null, "adm3_pcode": "MR00700401", "adm2_name": "Nema", "adm2_name1": null, "adm2_name2": null, "adm2_name3": null, "adm2_pcode": "MR007004", "adm1_name": "Hodh El Chargi", "adm1_name1": null, "adm1_name2": null, "adm1_name3": null, "adm1_pcode": "MR007", "adm0_name": "Mauritania", "adm0_name1": null, "adm0_name2": null, "adm0_name3": null, "adm0_pcode": "MR", "valid_on": "2024-03-26", "valid_to": null, "version": "v03", "name_lng": null, "name_lng1": null, "name_lng2": null, "name_lng3": null }, "geometry": { "type": "Point", "coordinates": [ -7.25349999999986, 16.616200000000163 ] } },
{ "type": "Feature", "properties": { "adm_p_lvl": 1, "name": "Nouadhibou", "name_1": null, "name_2": null, "name_3": null, "loc_pcode": null, "x_coord": -17.033612, "y_coord": 20.900237, "adm3_name": "Nouadhibou", "adm3_name1": null, "adm3_name2": null, "adm3_name3": null, "adm3_pcode": "MR00400001", "adm2_name": "Nouadhibou", "adm2_name1": null, "adm2_name2": null, "adm2_name3": null, "adm2_pcode": "MR004000", "adm1_name": "Dakhlet-Nouadhibou", "adm1_name1": null, "adm1_name2": null, "adm1_name3": null, "adm1_pcode": "MR004", "adm0_name": "Mauritania", "adm0_name1": null, "adm0_name2": null, "adm0_name3": null, "adm0_pcode": "MR", "valid_on": "2024-03-26", "valid_to": null, "version": "v03", "name_lng": null, "name_lng1": null, "name_lng2": null, "name_lng3": null }, "geometry": { "type": "Point", "coordinates": [ -17.033611999999835, 20.900237 ] } },
{ "type": "Feature", "properties": { "adm_p_lvl": 0, "name": "Nouakchott", "name_1": null, "name_2": null, "name_3": null, "loc_pcode": null, "x_coord": -15.981855, "y_coord": 18.083117, "adm3_name": "Tevragh Zeina", "adm3_name1": null, "adm3_name2": null, "adm3_name3": null, "adm3_pcode": "MR01001007", "adm2_name": "Nouakchott", "adm2_name1": null, "adm2_name2": null, "adm2_name3": null, "adm2_pcode": "MR010010", "adm1_name": "Nouakchott", "adm1_name1": null, "adm1_name2": null, "adm1_name3": null, "adm1_pcode": "MR010", "adm0_name": "Mauritania", "adm0_name1": null, "adm0_name2": null, "adm0_name3": null, "adm0_pcode": "MR", "valid_on": "2024-03-26", "valid_to": null, "version": "v03", "name_lng": null, "name_lng1": null, "name_lng2": null, "name_lng3": null }, "geometry": { "type": "Point", "coordinates": [ -15.981854999999882, 18.083117000000129 ] } },
{ "type": "Feature", "properties": { "adm_p_lvl": 2, "name": "Ouad Naga", "name_1": null, "name_2": null, "name_3": null, "loc_pcode": null, "x_coord": -15.695278, "y_coord": 17.9525, "adm3_name": "Aouleygat", "adm3_name1": null, "adm3_name2": null, "adm3_name3": null, "adm3_pcode": "MR01300402", "adm2_name": "Ouad Naga", "adm2_name1": null, "adm2_name2": null, "adm2_name3": null, "adm2_pcode": "MR013004", "adm1_name": "Trarza", "adm1_name1": null, "adm1_name2": null, "adm1_name3": null, "adm1_pcode": "MR013", "adm0_name": "Mauritania", "adm0_name1": null, "adm0_name2": null, "adm0_name3": null, "adm0_pcode": "MR", "valid_on": "2024-03-26", "valid_to": null, "version": "v03", "name_lng": null, "name_lng1": null, "name_lng2": null, "name_lng3": null }, "geometry": { "type": "Point", "coordinates": [ -15.695278, 17.952500000000157 ] } },
{ "type": "Feature", "properties": { "adm_p_lvl": 2, "name": "Ouadane", "name_1": null, "name_2": null, "name_3": null, "loc_pcode": null, "x_coord": -11.621376, "y_coord": 20.927666, "adm3_name": "Ouadane", "adm3_name1": null, "adm3_name2": null, "adm3_name3": null, "adm3_pcode": "MR00100401", "adm2_name": "Ouadane", "adm2_name1": null, "adm2_name2": null, "adm2_name3": null, "adm2_pcode": "MR001004", "adm1_name": "Adrar", "adm1_name1": null, "adm1_name2": null, "adm1_name3": null, "adm1_pcode": "MR001", "adm0_name": "Mauritania", "adm0_name1": null, "adm0_name2": null, "adm0_name3": null, "adm0_pcode": "MR", "valid_on": "2024-03-26", "valid_to": null, "version": "v03", "name_lng": null, "name_lng1": null, "name_lng2": null, "name_lng3": null }, "geometry": { "type": "Point", "coordinates": [ -11.621376, 20.927666 ] } },
{ "type": "Feature", "properties": { "adm_p_lvl": 2, "name": "Oualata", "name_1": null, "name_2": null, "name_3": null, "loc_pcode": null, "x_coord": -7.0256, "y_coord": 17.3014, "adm3_name": "Oualata", "adm3_name1": null, "adm3_name2": null, "adm3_name3": null, "adm3_pcode": "MR00700501", "adm2_name": "Oualata", "adm2_name1": null, "adm2_name2": null, "adm2_name3": null, "adm2_pcode": "MR007005", "adm1_name": "Hodh El Chargi", "adm1_name1": null, "adm1_name2": null, "adm1_name3": null, "adm1_pcode": "MR007", "adm0_name": "Mauritania", "adm0_name1": null, "adm0_name2": null, "adm0_name3": null, "adm0_pcode": "MR", "valid_on": "2024-03-26", "valid_to": null, "version": "v03", "name_lng": null, "name_lng1": null, "name_lng2": null, "name_lng3": null }, "geometry": { "type": "Point", "coordinates": [ -7.025599999999883, 17.3014 ] } },
{ "type": "Feature", "properties": { "adm_p_lvl": 2, "name": "Ould Yenge", "name_1": null, "name_2": null, "name_3": null, "loc_pcode": null, "x_coord": -11.714674, "y_coord": 15.540379, "adm3_name": "Ould Yenge", "adm3_name1": null, "adm3_name2": null, "adm3_name3": null, "adm3_pcode": "MR00600101", "adm2_name": "Ould Yenge", "adm2_name1": null, "adm2_name2": null, "adm2_name3": null, "adm2_pcode": "MR006001", "adm1_name": "Guidimakha", "adm1_name1": null, "adm1_name2": null, "adm1_name3": null, "adm1_pcode": "MR006", "adm0_name": "Mauritania", "adm0_name1": null, "adm0_name2": null, "adm0_name3": null, "adm0_pcode": "MR", "valid_on": "2024-03-26", "valid_to": null, "version": "v03", "name_lng": null, "name_lng1": null, "name_lng2": null, "name_lng3": null }, "geometry": { "type": "Point", "coordinates": [ -11.714673999999832, 15.540379 ] } },
{ "type": "Feature", "properties": { "adm_p_lvl": 2, "name": "Rkiz", "name_1": null, "name_2": null, "name_3": null, "loc_pcode": null, "x_coord": -15.316111, "y_coord": 16.911111, "adm3_name": "Tekane", "adm3_name1": null, "adm3_name2": null, "adm3_name3": null, "adm3_pcode": "MR01300504", "adm2_name": "R'kiz", "adm2_name1": null, "adm2_name2": null, "adm2_name3": null, "adm2_pcode": "MR013005", "adm1_name": "Trarza", "adm1_name1": null, "adm1_name2": null, "adm1_name3": null, "adm1_pcode": "MR013", "adm0_name": "Mauritania", "adm0_name1": null, "adm0_name2": null, "adm0_name3": null, "adm0_pcode": "MR", "valid_on": "2024-03-26", "valid_to": null, "version": "v03", "name_lng": null, "name_lng1": null, "name_lng2": null, "name_lng3": null }, "geometry": { "type": "Point", "coordinates": [ -15.316111, 16.911111000000119 ] } },
{ "type": "Feature", "properties": { "adm_p_lvl": 1, "name": "Rosso", "name_1": null, "name_2": null, "name_3": null, "loc_pcode": null, "x_coord": -15.914167, "y_coord": 16.510278, "adm3_name": "Rosso", "adm3_name1": null, "adm3_name2": null, "adm3_name3": null, "adm3_pcode": "MR01300601", "adm2_name": "Rosso", "adm2_name1": null, "adm2_name2": null, "adm2_name3": null, "adm2_pcode": "MR013006", "adm1_name": "Trarza", "adm1_name1": null, "adm1_name2": null, "adm1_name3": null, "adm1_pcode": "MR013", "adm0_name": "Mauritania", "adm0_name1": null, "adm0_name2": null, "adm0_name3": null, "adm0_pcode": "MR", "valid_on": "2024-03-26", "valid_to": null, "version": "v03", "name_lng": null, "name_lng1": null, "name_lng2": null, "name_lng3": null }, "geometry": { "type": "Point", "coordinates": [ -15.914167, 16.510278000000142 ] } },
{ "type": "Feature", "properties": { "adm_p_lvl": 1, "name": "Selibaby", "name_1": null, "name_2": null, "name_3": null, "loc_pcode": null, "x_coord": -12.182897, "y_coord": 15.158946, "adm3_name": "Selibaby", "adm3_name1": null, "adm3_name2": null, "adm3_name3": null, "adm3_pcode": "MR00600201", "adm2_name": "Selibaby", "adm2_name1": null, "adm2_name2": null, "adm2_name3": null, "adm2_pcode": "MR006002", "adm1_name": "Guidimakha", "adm1_name1": null, "adm1_name2": null, "adm1_name3": null, "adm1_pcode": "MR006", "adm0_name": "Mauritania", "adm0_name1": null, "adm0_name2": null, "adm0_name3": null, "adm0_pcode": "MR", "valid_on": "2024-03-26", "valid_to": null, "version": "v03", "name_lng": null, "name_lng1": null, "name_lng2": null, "name_lng3": null }, "geometry": { "type": "Point", "coordinates": [ -12.182896999999855, 15.158946000000185 ] } },
{ "type": "Feature", "properties": { "adm_p_lvl": 2, "name": "Tamchekett", "name_1": null, "name_2": null, "name_3": null, "loc_pcode": null, "x_coord": -10.6706, "y_coord": 17.2422, "adm3_name": "Tamchekett", "adm3_name1": null, "adm3_name2": null, "adm3_name3": null, "adm3_pcode": "MR00800301", "adm2_name": "Tamchekett", "adm2_name1": null, "adm2_name2": null, "adm2_name3": null, "adm2_pcode": "MR008003", "adm1_name": "Hodh El Gharbi", "adm1_name1": null, "adm1_name2": null, "adm1_name3": null, "adm1_pcode": "MR008", "adm0_name": "Mauritania", "adm0_name1": null, "adm0_name2": null, "adm0_name3": null, "adm0_pcode": "MR", "valid_on": "2024-03-26", "valid_to": null, "version": "v03", "name_lng": null, "name_lng1": null, "name_lng2": null, "name_lng3": null }, "geometry": { "type": "Point", "coordinates": [ -10.6706, 17.2422 ] } },
{ "type": "Feature", "properties": { "adm_p_lvl": 2, "name": "Tichit", "name_1": null, "name_2": null, "name_3": null, "loc_pcode": null, "x_coord": -9.493944, "y_coord": 18.441345, "adm3_name": "Tichitt", "adm3_name1": null, "adm3_name2": null, "adm3_name3": null, "adm3_pcode": "MR01100201", "adm2_name": "Tichitt", "adm2_name1": null, "adm2_name2": null, "adm2_name3": null, "adm2_pcode": "MR011002", "adm1_name": "Tagant", "adm1_name1": null, "adm1_name2": null, "adm1_name3": null, "adm1_pcode": "MR011", "adm0_name": "Mauritania", "adm0_name1": null, "adm0_name2": null, "adm0_name3": null, "adm0_pcode": "MR", "valid_on": "2024-03-26", "valid_to": null, "version": "v03", "name_lng": null, "name_lng1": null, "name_lng2": null, "name_lng3": null }, "geometry": { "type": "Point", "coordinates": [ -9.493944, 18.441345 ] } },
{ "type": "Feature", "properties": { "adm_p_lvl": 1, "name": "Tijikja", "name_1": null, "name_2": null, "name_3": null, "loc_pcode": null, "x_coord": -11.4256, "y_coord": 18.555, "adm3_name": "Tidjikja", "adm3_name1": null, "adm3_name2": null, "adm3_name3": null, "adm3_pcode": "MR01100301", "adm2_name": "Tidjikja", "adm2_name1": null, "adm2_name2": null, "adm2_name3": null, "adm2_pcode": "MR011003", "adm1_name": "Tagant", "adm1_name1": null, "adm1_name2": null, "adm1_name3": null, "adm1_pcode": "MR011", "adm0_name": "Mauritania", "adm0_name1": null, "adm0_name2": null, "adm0_name3": null, "adm0_pcode": "MR", "valid_on": "2024-03-26", "valid_to": null, "version": "v03", "name_lng": null, "name_lng1": null, "name_lng2": null, "name_lng3": null }, "geometry": { "type": "Point", "coordinates": [ -11.4256, 18.555 ] } },
{ "type": "Feature", "properties": { "adm_p_lvl": 2, "name": "Timbedgha", "name_1": null, "name_2": null, "name_3": null, "loc_pcode": null, "x_coord": -8.1643, "y_coord": 16.2447, "adm3_name": "Tembedgha", "adm3_name1": null, "adm3_name2": null, "adm3_name3": null, "adm3_pcode": "MR00700601", "adm2_name": "Timbedra", "adm2_name1": null, "adm2_name2": null, "adm2_name3": null, "adm2_pcode": "MR007006", "adm1_name": "Hodh El Chargi", "adm1_name1": null, "adm1_name2": null, "adm1_name3": null, "adm1_pcode": "MR007", "adm0_name": "Mauritania", "adm0_name1": null, "adm0_name2": null, "adm0_name3": null, "adm0_pcode": "MR", "valid_on": "2024-03-26", "valid_to": null, "version": "v03", "name_lng": null, "name_lng1": null, "name_lng2": null, "name_lng3": null }, "geometry": { "type": "Point", "coordinates": [ -8.1643, 16.2447 ] } },
{ "type": "Feature", "properties": { "adm_p_lvl": 2, "name": "Tintane", "name_1": null, "name_2": null, "name_3": null, "loc_pcode": null, "x_coord": -10.1737, "y_coord": 16.3946, "adm3_name": "Tintane", "adm3_name1": null, "adm3_name2": null, "adm3_name3": null, "adm3_pcode": "MR00800401", "adm2_name": "Tintane", "adm2_name1": null, "adm2_name2": null, "adm2_name3": null, "adm2_pcode": "MR008004", "adm1_name": "Hodh El Gharbi", "adm1_name1": null, "adm1_name2": null, "adm1_name3": null, "adm1_pcode": "MR008", "adm0_name": "Mauritania", "adm0_name1": null, "adm0_name2": null, "adm0_name3": null, "adm0_pcode": "MR", "valid_on": "2024-03-26", "valid_to": null, "version": "v03", "name_lng": null, "name_lng1": null, "name_lng2": null, "name_lng3": null }, "geometry": { "type": "Point", "coordinates": [ -10.1737, 16.3946 ] } },
{ "type": "Feature", "properties": { "adm_p_lvl": 1, "name": "Zouerate", "name_1": null, "name_2": null, "name_3": null, "loc_pcode": null, "x_coord": -12.452053, "y_coord": 22.71873, "adm3_name": "Fderik 2", "adm3_name1": null, "adm3_name2": null, "adm3_name3": null, "adm3_pcode": "MR01200202", "adm2_name": "F'Derik", "adm2_name1": null, "adm2_name2": null, "adm2_name3": null, "adm2_pcode": "MR012002", "adm1_name": "Tris-Zemmour", "adm1_name1": null, "adm1_name2": null, "adm1_name3": null, "adm1_pcode": "MR012", "adm0_name": "Mauritania", "adm0_name1": null, "adm0_name2": null, "adm0_name3": null, "adm0_pcode": "MR", "valid_on": "2024-03-26", "valid_to": null, "version": "v03", "name_lng": null, "name_lng1": null, "name_lng2": null, "name_lng3": null }, "geometry": { "type": "Point", "coordinates": [ -12.452053, 22.71873 ] } }
]
}
