{
"type": "FeatureCollection",
"name": "mrt_adminpoints",
"crs": { "type": "name", "properties": { "name": "urn:ogc:def:crs:OGC:1.3:CRS84" } },
"features": [
{ "type": "Feature", "properties": { "admin_level": 0, "name": "Mauritanie", "name1": null, "name2": null, "name3": null, "x_coord": -11.47354409, "y_coord": 21.00286936, "adm4_name": null, "adm4_name1": null, "adm4_name2": null, "adm4_name3": null, "adm4_pcode": null, "adm3_name": null, "adm3_name1": null, "adm3_name2": null, "adm3_name3": null, "adm3_pcode": null, "adm2_name": null, "adm2_name1": null, "adm2_name2": null, "adm2_name3": null, "adm2_pcode": null, "adm1_name": null, "adm1_name1": null, "adm1_name2": null, "adm1_name3": null, "adm1_pcode": null, "adm0_name": "Mauritanie", "adm0_name1": null, "adm0_name2": null, "adm0_name3": null, "adm0_pcode": "MR", "valid_on": "2024-03-27", "valid_to": null, "version": "v03", "lang": "fr", "lang1": null, "lang2": null, "lang3": null }, "geometry": { "type": "Point", "coordinates": [ -11.473544090999894, 21.002869364000162 ] } },
{ "type": "Feature", "properties": { "admin_level": 1, "name": "Adrar", "name1": null, "name2": null, "name3": null, "x_coord": -9.56145247, "y_coord": 21.43409471, "adm4_name": null, "adm4_name1": null, "adm4_name2": null, "adm4_name3": null, "adm4_pcode": null, "adm3_name": null, "adm3_name1": null, "adm3_name2": null, "adm3_name3": null, "adm3_pcode": null, "adm2_name": null, "adm2_name1": null, "adm2_name2": null, "adm2_name3": null, "adm2_pcode": null, "adm1_name": "Adrar", "adm1_name1": null, "adm1_name2": null, "adm1_name3": null, "adm1_pcode": "MR07", "adm0_name": "Mauritanie", "adm0_name1": null, "adm0_name2": null, "adm0_name3": null, "adm0_pcode": "MR", "valid_on": "2024-03-27", "valid_to": null, "version": "v03", "lang": "fr", "lang1": null, "lang2": null, "lang3": null }, "geometry": { "type": "Point", "coordinates": [ -9.561452465999935, 21.434094710000181 ] } },
{ "type": "Feature", "properties": { "admin_level": 1, "name": "Assaba", "name1": null, "name2": null, "name3": null, "x_coord": -11.8561777, "y_coord": 16.71305181, "adm4_name": null, "adm4_name1": null, "adm4_name2": null, "adm4_name3": null, "adm4_pcode": null, "adm3_name": null, "adm3_name1": null, "adm3_name2": null, "adm3_name3": null, "adm3_pcode": null, "adm2_name": null, "adm2_name1": null, "adm2_name2": null, "adm2_name3": null, "adm2_pcode": null, "adm1_name": "Assaba", "adm1_name1": null, "adm1_name2": null, "adm1_name3": null, "adm1_pcode": "MR03", "adm0_name": "Mauritanie", "adm0_name1": null, "adm0_name2": null, "adm0_name3": null, "adm0_pcode": "MR", "valid_on": "2024-03-27", "valid_to": null, "version": "v03", "lang": "fr", "lang1": null, "lang2": null, "lang3": null }, "geometry": { "type": "Point", "coordinates": [ -11.856177699999932, 16.713051809000149 ] } },
{ "type": "Feature", "properties": { "admin_level": 1, "name": "Brakna", "name1": null, "name2": null, "name3": null, "x_coord": -13.27926713, "y_coord": 17.29309419, "adm4_name": null, "adm4_name1": null, "adm4_name2": null, "adm4_name3": null, "adm4_pcode": null, "adm3_name": null, "adm3_name1": null, "adm3_name2": null, "adm3_name3": null, "adm3_pcode": null, "adm2_name": null, "adm2_name1": null, "adm2_name2": null, "adm2_name3": null, "adm2_pcode": null, "adm1_name": "Brakna", "adm1_name1": null, "adm1_name2": null, "adm1_name3": null, "adm1_pcode": "MR05", "adm0_name": "Mauritanie", "adm0_name1": null, "adm0_name2": null, "adm0_name3": null, "adm0_pcode": "MR", "valid_on": "2024-03-27", "valid_to": null, "version": "v03", "lang": "fr", "lang1": null, "lang2": null, "lang3": null }, "geometry": { "type": "Point", "coordinates": [ -13.279267126999912, 17.293094192000069 ] } },
{ "type": "Feature", "properties": { "admin_level": 1, "name": "Dakhlet Nouadhibou", "name1": null, "name2": null, "name3": null, "x_coord": -15.89191438, "y_coord": 20.16793983, "adm4_name": null, "adm4_name1": null, "adm4_name2": null, "adm4_name3": null, "adm4_pcode": null, "adm3_name": null, "adm3_name1": null, "adm3_name2": null, "adm3_name3": null, "adm3_pcode": null, "adm2_name": null, "adm2_name1": null, "adm2_name2": null, "adm2_name3": null, "adm2_pcode": null, "adm1_name": "Dakhlet Nouadhibou", "adm1_name1": null, "adm1_name2": null, "adm1_name3": null, "adm1_pcode": "MR08", "adm0_name": "Mauritanie", "adm0_name1": null, "adm0_name2": null, "adm0_name3": null, "adm0_pcode": "MR", "valid_on": "2024-03-27", "valid_to": null, "version": "v03", "lang": "fr", "lang1": null, "lang2": null, "lang3": null }, "geometry": { "type": "Point", "coordinates": [ -15.891914377999967, 20.167939826000122 ] } },
{ "type": "Feature", "properties": { "admin_level": 1, "name": "Gorgol", "name1": null, "name2": null, "name3": null, "x_coord": -12.6763346, "y_coord": 15.94672507, "adm4_name": null, "adm4_name1": null, "adm4_name2": null, "adm4_name3": null, "adm4_pcode": null, "adm3_name": null, "adm3_name1": null, "adm3_name2": null, "adm3_name3": null, "adm3_pcode": null, "adm2_name": null, "adm2_name1": null, "adm2_name2": null, "adm2_name3": null, "adm2_pcode": null, "adm1_name": "Gorgol", "adm1_name1": null, "adm1_name2": null, "adm1_name3": null, "adm1_pcode": "MR04", "adm0_name": "Mauritanie", "adm0_name1": null, "adm0_name2": null, "adm0_name3": null, "adm0_pcode": "MR", "valid_on": "2024-03-27", "valid_to": null, "version": "v03", "lang": "fr", "lang1": null, "lang2": null, "lang3": null }, "geometry": { "type": "Point", "coordinates": [ -12.676334594999901, 15.94672507000007 ] } },
{ "type": "Feature", "properties": { "admin_level": 1, "name": "Guidimagha", "name1": null, "name2": null, "name3": null, "x_coord": -12.20555629, "y_coord": 15.38895756, "adm4_name": null, "adm4_name1": null, "adm4_name2": null, "adm4_name3": null, "adm4_pcode": null, "adm3_name": null, "adm3_name1": null, "adm3_name2": null, "adm3_name3": null, "adm3_pcode": null, "adm2_name": null, "adm2_name1": null, "adm2_name2": null, "adm2_name3": null, "adm2_pcode": null, "adm1_name": "Guidimagha", "adm1_name1": null, "adm1_name2": null, "adm1_name3": null, "adm1_pcode": "MR10", "adm0_name": "Mauritanie", "adm0_name1": null, "adm0_name2": null, "adm0_name3": null, "adm0_pcode": "MR", "valid_on": "2024-03-27", "valid_to": null, "version": "v03", "lang": "fr", "lang1": null, "lang2": null, "lang3": null }, "geometry": { "type": "Point", "coordinates": [ -12.205556293999905, 15.388957556000094 ] } },
{ "type": "Feature", "properties": { "admin_level": 1, "name": "Hodh Chargui", "name1": null, "name2": null, "name3": null, "x_coord": -7.1317095, "y_coord": 18.65291899, "adm4_name": null, "adm4_name1": null, "adm4_name2": null, "adm4_name3": null, "adm4_pcode": null, "adm3_name": null, "adm3_name1": null, "adm3_name2": null, "adm3_name3": null, "adm3_pcode": null, "adm2_name": null, "adm2_name1": null, "adm2_name2": null, "adm2_name3": null, "adm2_pcode": null, "adm1_name": "Hodh Chargui", "adm1_name1": null, "adm1_name2": null, "adm1_name3": null, "adm1_pcode": "MR01", "adm0_name": "Mauritanie", "adm0_name1": null, "adm0_name2": null, "adm0_name3": null, "adm0_pcode": "MR", "valid_on": "2024-03-27", "valid_to": null, "version": "v03", "lang": "fr", "lang1": null, "lang2": null, "lang3": null }, "geometry": { "type": "Point", "coordinates": [ -7.131709498999953, 18.652918994000174 ] } },
{ "type": "Feature", "properties": { "admin_level": 1, "name": "Hodh El Gharbi", "name1": null, "name2": null, "name3": null, "x_coord": -9.73385811, "y_coord": 16.57043706, "adm4_name": null, "adm4_name1": null, "adm4_name2": null, "adm4_name3": null, "adm4_pcode": null, "adm3_name": null, "adm3_name1": null, "adm3_name2": null, "adm3_name3": null, "adm3_pcode": null, "adm2_name": null, "adm2_name1": null, "adm2_name2": null, "adm2_name3": null, "adm2_pcode": null, "adm1_name": "Hodh El Gharbi", "adm1_name1": null, "adm1_name2": null, "adm1_name3": null, "adm1_pcode": "MR02", "adm0_name": "Mauritanie", "adm0_name1": null, "adm0_name2": null, "adm0_name3": null, "adm0_pcode": "MR", "valid_on": "2024-03-27", "valid_to": null, "version": "v03", "lang": "fr", "lang1": null, "lang2": null, "lang3": null }, "geometry": { "type": "Point", "coordinates": [ -9.733858112999883, 16.570437056 ] } },
{ "type": "Feature", "properties": { "admin_level": 1, "name": "Inchiri", "name1": null, "name2": null, "name3": null, "x_coord": -14.80468921, "y_coord": 19.69049946, "adm4_name": null, "adm4_name1": null, "adm4_name2": null, "adm4_name3": null, "adm4_pcode": null, "adm3_name": null, "adm3_name1": null, "adm3_name2": null, "adm3_name3": null, "adm3_pcode": null, "adm2_name": null, "adm2_name1": null, "adm2_name2": null, "adm2_name3": null, "adm2_pcode": null, "adm1_name": "Inchiri", "adm1_name1": null, "adm1_name2": null, "adm1_name3": null, "adm1_pcode": "MR12", "adm0_name": "Mauritanie", "adm0_name1": null, "adm0_name2": null, "adm0_name3": null, "adm0_pcode": "MR", "valid_on": "2024-03-27", "valid_to": null, "version": "v03", "lang": "fr", "lang1": null, "lang2": null, "lang3": null }, "geometry": { "type": "Point", "coordinates": [ -14.804689210999925, 19.690499457000158 ] } },
{ "type": "Feature", "properties": { "admin_level": 1, "name": "Nouakchott Nord", "name1": null, "name2": null, "name3": null, "x_coord": -15.89458466, "y_coord": 18.10201464, "adm4_name": null, "adm4_name1": null, "adm4_name2": null, "adm4_name3": null, "adm4_pcode": null, "adm3_name": null, "adm3_name1": null, "adm3_name2": null, "adm3_name3": null, "adm3_pcode": null, "adm2_name": null, "adm2_name1": null, "adm2_name2": null, "adm2_name3": null, "adm2_pcode": null, "adm1_name": "Nouakchott Nord", "adm1_name1": null, "adm1_name2": null, "adm1_name3": null, "adm1_pcode": "MR14", "adm0_name": "Mauritanie", "adm0_name1": null, "adm0_name2": null, "adm0_name3": null, "adm0_pcode": "MR", "valid_on": "2024-03-27", "valid_to": null, "version": "v03", "lang": "fr", "lang1": null, "lang2": null, "lang3": null }, "geometry": { "type": "Point", "coordinates": [ -15.894584655999836, 18.102014642000142 ] } },
{ "type": "Feature", "properties": { "admin_level": 1, "name": "Nouakchott Ouest", "name1": null, "name2": null, "name3": null, "x_coord": -15.97398522, "y_coord": 18.30531923, "adm4_name": null, "adm4_name1": null, "adm4_name2": null, "adm4_name3": null, "adm4_pcode": null, "adm3_name": null, "adm3_name1": null, "adm3_name2": null, "adm3_name3": null, "adm3_pcode": null, "adm2_name": null, "adm2_name1": null, "adm2_name2": null, "adm2_name3": null, "adm2_pcode": null, "adm1_name": "Nouakchott Ouest", "adm1_name1": null, "adm1_name2": null, "adm1_name3": null, "adm1_pcode": "MR13", "adm0_name": "Mauritanie", "adm0_name1": null, "adm0_name2": null, "adm0_name3": null, "adm0_pcode": "MR", "valid_on": "2024-03-27", "valid_to": null, "version": "v03", "lang": "fr", "lang1": null, "lang2": null, "lang3": null }, "geometry": { "type": "Point", "coordinates": [ -15.973985217999882, 18.305319234000081 ] } },
{ "type": "Feature", "properties": { "admin_level": 1, "name": "Nouakchott Sud", "name1": null, "name2": null, "name3": null, "x_coord": -15.93989097, "y_coord": 17.94323942, "adm4_name": null, "adm4_name1": null, "adm4_name2": null, "adm4_name3": null, "adm4_pcode": null, "adm3_name": null, "adm3_name1": null, "adm3_name2": null, "adm3_name3": null, "adm3_pcode": null, "adm2_name": null, "adm2_name1": null, "adm2_name2": null, "adm2_name3": null, "adm2_pcode": null, "adm1_name": "Nouakchott Sud", "adm1_name1": null, "adm1_name2": null, "adm1_name3": null, "adm1_pcode": "MR15", "adm0_name": "Mauritanie", "adm0_name1": null, "adm0_name2": null, "adm0_name3": null, "adm0_pcode": "MR", "valid_on": "2024-03-27", "valid_to": null, "version": "v03", "lang": "fr", "lang1": null, "lang2": null, "lang3": null }, "geometry": { "type": "Point", "coordinates": [ -15.939890974999855, 17.943239424000069 ] } },
{ "type": "Feature", "properties": { "admin_level": 1, "name": "Tagant", "name1": null, "name2": null, "name3": null, "x_coord": -10.56096314, "y_coord": 18.43443069, "adm4_name": null, "adm4_name1": null, "adm4_name2": null, "adm4_name3": null, "adm4_pcode": null, "adm3_name": null, "adm3_name1": null, "adm3_name2": null, "adm3_name3": null, "adm3_pcode": null, "adm2_name": null, "adm2_name1": null, "adm2_name2": null, "adm2_name3": null, "adm2_pcode": null, "adm1_name": "Tagant", "adm1_name1": null, "adm1_name2": null, "adm1_name3": null, "adm1_pcode": "MR09", "adm0_name": "Mauritanie", "adm0_name1": null, "adm0_name2": null, "adm0_name3": null, "adm0_pcode": "MR", "valid_on": "2024-03-27", "valid_to": null, "version": "v03", "lang": "fr", "lang1": null, "lang2": null, "lang3": null }, "geometry": { "type": "Point", "coordinates": [ -10.56096314499996, 18.434430692000149 ] } },
{ "type": "Feature", "properties": { "admin_level": 1, "name": "Tiris Zemmour", "name1": null, "name2": null, "name3": null, "x_coord": -9.58718967, "y_coord": 23.89235262, "adm4_name": null, "adm4_name1": null, "adm4_name2": null, "adm4_name3": null, "adm4_pcode": null, "adm3_name": null, "adm3_name1": null, "adm3_name2": null, "adm3_name3": null, "adm3_pcode": null, "adm2_name": null, "adm2_name1": null, "adm2_name2": null, "adm2_name3": null, "adm2_pcode": null, "adm1_name": "Tiris Zemmour", "adm1_name1": null, "adm1_name2": null, "adm1_name3": null, "adm1_pcode": "MR11", "adm0_name": "Mauritanie", "adm0_name1": null, "adm0_name2": null, "adm0_name3": null, "adm0_pcode": "MR", "valid_on": "2024-03-27", "valid_to": null, "version": "v03", "lang": "fr", "lang1": null, "lang2": null, "lang3": null }, "geometry": { "type": "Point", "coordinates": [ -9.587189670999976, 23.892352620000054 ] } },
{ "type": "Feature", "properties": { "admin_level": 1, "name": "Trarza", "name1": null, "name2": null, "name3": null, "x_coord": -15.05401059, "y_coord": 17.5173131, "adm4_name": null, "adm4_name1": null, "adm4_name2": null, "adm4_name3": null, "adm4_pcode": null, "adm3_name": null, "adm3_name1": null, "adm3_name2": null, "adm3_name3": null, "adm3_pcode": null, "adm2_name": null, "adm2_name1": null, "adm2_name2": null, "adm2_name3": null, "adm2_pcode": null, "adm1_name": "Trarza", "adm1_name1": null, "adm1_name2": null, "adm1_name3": null, "adm1_pcode": "MR06", "adm0_name": "Mauritanie", "adm0_name1": null, "adm0_name2": null, "adm0_name3": null, "adm0_pcode": "MR", "valid_on": "2024-03-27", "valid_to": null, "version": "v03", "lang": "fr", "lang1": null, "lang2": null, "lang3": null }, "geometry": { "type": "Point", "coordinates": [ -15.054010593999863, 17.517313096000123 ] } },
{ "type": "Feature", "properties": { "admin_level": 2, "name": "Ouadane", "name1": null, "name2": null, "name3": null, "x_coord": -8.12984823, "y_coord": 22.35999638, "adm4_name": null, "adm4_name1": null, "adm4_name2": null, "adm4_name3": null, "adm4_pcode": null, "adm3_name": null, "adm3_name1": null, "adm3_name2": null, "adm3_name3": null, "adm3_pcode": null, "adm2_name": "Ouadane", "adm2_name1": null, "adm2_name2": null, "adm2_name3": null, "adm2_pcode": "MR074", "adm1_name": "Adrar", "adm1_name1": null, "adm1_name2": null, "adm1_name3": null, "adm1_pcode": "MR07", "adm0_name": "Mauritanie", "adm0_name1": null, "adm0_name2": null, "adm0_name3": null, "adm0_pcode": "MR", "valid_on": "2024-03-27", "valid_to": null, "version": "v03", "lang": "fr", "lang1": null, "lang2": null, "lang3": null }, "geometry": { "type": "Point", "coordinates": [ -8.129848233999951, 22.359996378000176 ] } },
{ "type": "Feature", "properties": { "admin_level": 2, "name": "Atar", "name1": null, "name2": null, "name3": null, "x_coord": -13.43269619, "y_coord": 20.62472106, "adm4_name": null, "adm4_name1": null, "adm4_name2": null, "adm4_name3": null, "adm4_pcode": null, "adm3_name": null, "adm3_name1": null, "adm3_name2": null, "adm3_name3": null, "adm3_pcode": null, "adm2_name": "Atar", "adm2_name1": null, "adm2_name2": null, "adm2_name3": null, "adm2_pcode": "MR072", "adm1_name": "Adrar", "adm1_name1": null, "adm1_name2": null, "adm1_name3": null, "adm1_pcode": "MR07", "adm0_name": "Mauritanie", "adm0_name1": null, "adm0_name2": null, "adm0_name3": null, "adm0_pcode": "MR", "valid_on": "2024-03-27", "valid_to": null, "version": "v03", "lang": "fr", "lang1": null, "lang2": null, "lang3": null }, "geometry": { "type": "Point", "coordinates": [ -13.432696193999959, 20.62472106000007 ] } },
{ "type": "Feature", "properties": { "admin_level": 2, "name": "Aoujeft", "name1": null, "name2": null, "name3": null, "x_coord": -13.21600097, "y_coord": 19.55507599, "adm4_name": null, "adm4_name1": null, "adm4_name2": null, "adm4_name3": null, "adm4_pcode": null, "adm3_name": null, "adm3_name1": null, "adm3_name2": null, "adm3_name3": null, "adm3_pcode": null, "adm2_name": "Aoujeft", "adm2_name1": null, "adm2_name2": null, "adm2_name3": null, "adm2_pcode": "MR071", "adm1_name": "Adrar", "adm1_name1": null, "adm1_name2": null, "adm1_name3": null, "adm1_pcode": "MR07", "adm0_name": "Mauritanie", "adm0_name1": null, "adm0_name2": null, "adm0_name3": null, "adm0_pcode": "MR", "valid_on": "2024-03-27", "valid_to": null, "version": "v03", "lang": "fr", "lang1": null, "lang2": null, "lang3": null }, "geometry": { "type": "Point", "coordinates": [ -13.216000968999879, 19.555075988000112 ] } },
{ "type": "Feature", "properties": { "admin_level": 2, "name": "Chinguitti", "name1": null, "name2": null, "name3": null, "x_coord": -10.24493285, "y_coord": 20.15650938, "adm4_name": null, "adm4_name1": null, "adm4_name2": null, "adm4_name3": null, "adm4_pcode": null, "adm3_name": null, "adm3_name1": null, "adm3_name2": null, "adm3_name3": null, "adm3_pcode": null, "adm2_name": "Chinguitti", "adm2_name1": null, "adm2_name2": null, "adm2_name3": null, "adm2_pcode": "MR073", "adm1_name": "Adrar", "adm1_name1": null, "adm1_name2": null, "adm1_name3": null, "adm1_pcode": "MR07", "adm0_name": "Mauritanie", "adm0_name1": null, "adm0_name2": null, "adm0_name3": null, "adm0_pcode": "MR", "valid_on": "2024-03-27", "valid_to": null, "version": "v03", "lang": "fr", "lang1": null, "lang2": null, "lang3": null }, "geometry": { "type": "Point", "coordinates": [ -10.244932846999973, 20.156509377000191 ] } },
{ "type": "Feature", "properties": { "admin_level": 2, "name": "Guerou", "name1": null, "name2": null, "name3": null, "x_coord": -11.92930856, "y_coord": 16.87572462, "adm4_name": null, "adm4_name1": null, "adm4_name2": null, "adm4_name3": null, "adm4_pcode": null, "adm3_name": null, "adm3_name1": null, "adm3_name2": null, "adm3_name3": null, "adm3_pcode": null, "adm2_name": "Guerou", "adm2_name1": null, "adm2_name2": null, "adm2_name3": null, "adm2_pcode": "MR033", "adm1_name": "Assaba", "adm1_name1": null, "adm1_name2": null, "adm1_name3": null, "adm1_pcode": "MR03", "adm0_name": "Mauritanie", "adm0_name1": null, "adm0_name2": null, "adm0_name3": null, "adm0_pcode": "MR", "valid_on": "2024-03-27", "valid_to": null, "version": "v03", "lang": "fr", "lang1": null, "lang2": null, "lang3": null }, "geometry": { "type": "Point", "coordinates": [ -11.929308559999981, 16.875724620000028 ] } },
{ "type": "Feature", "properties": { "admin_level": 2, "name": "Kiffa", "name1": null, "name2": null, "name3": null, "x_coord": -11.32274311, "y_coord": 16.6900937, "adm4_name": null, "adm4_name1": null, "adm4_name2": null, "adm4_name3": null, "adm4_pcode": null, "adm3_name": null, "adm3_name1": null, "adm3_name2": null, "adm3_name3": null, "adm3_pcode": null, "adm2_name": "Kiffa", "adm2_name1": null, "adm2_name2": null, "adm2_name3": null, "adm2_pcode": "MR035", "adm1_name": "Assaba", "adm1_name1": null, "adm1_name2": null, "adm1_name3": null, "adm1_pcode": "MR03", "adm0_name": "Mauritanie", "adm0_name1": null, "adm0_name2": null, "adm0_name3": null, "adm0_pcode": "MR", "valid_on": "2024-03-27", "valid_to": null, "version": "v03", "lang": "fr", "lang1": null, "lang2": null, "lang3": null }, "geometry": { "type": "Point", "coordinates": [ -11.322743113999934, 16.69009369500003 ] } },
{ "type": "Feature", "properties": { "admin_level": 2, "name": "Boumdeid", "name1": null, "name2": null, "name3": null, "x_coord": -11.27875137, "y_coord": 17.74382535, "adm4_name": null, "adm4_name1": null, "adm4_name2": null, "adm4_name3": null, "adm4_pcode": null, "adm3_name": null, "adm3_name1": null, "adm3_name2": null, "adm3_name3": null, "adm3_pcode": null, "adm2_name": "Boumdeid", "adm2_name1": null, "adm2_name2": null, "adm2_name3": null, "adm2_pcode": "MR032", "adm1_name": "Assaba", "adm1_name1": null, "adm1_name2": null, "adm1_name3": null, "adm1_pcode": "MR03", "adm0_name": "Mauritanie", "adm0_name1": null, "adm0_name2": null, "adm0_name3": null, "adm0_pcode": "MR", "valid_on": "2024-03-27", "valid_to": null, "version": "v03", "lang": "fr", "lang1": null, "lang2": null, "lang3": null }, "geometry": { "type": "Point", "coordinates": [ -11.278751369999895, 17.743825354000023 ] } },
{ "type": "Feature", "properties": { "admin_level": 2, "name": "Kankoussa", "name1": null, "name2": null, "name3": null, "x_coord": -11.14620813, "y_coord": 15.71253972, "adm4_name": null, "adm4_name1": null, "adm4_name2": null, "adm4_name3": null, "adm4_pcode": null, "adm3_name": null, "adm3_name1": null, "adm3_name2": null, "adm3_name3": null, "adm3_pcode": null, "adm2_name": "Kankoussa", "adm2_name1": null, "adm2_name2": null, "adm2_name3": null, "adm2_pcode": "MR034", "adm1_name": "Assaba", "adm1_name1": null, "adm1_name2": null, "adm1_name3": null, "adm1_pcode": "MR03", "adm0_name": "Mauritanie", "adm0_name1": null, "adm0_name2": null, "adm0_name3": null, "adm0_pcode": "MR", "valid_on": "2024-03-27", "valid_to": null, "version": "v03", "lang": "fr", "lang1": null, "lang2": null, "lang3": null }, "geometry": { "type": "Point", "coordinates": [ -11.146208129999934, 15.712539717000027 ] } },
{ "type": "Feature", "properties": { "admin_level": 2, "name": "Barkéol", "name1": null, "name2": null, "name3": null, "x_coord": -12.44257816, "y_coord": 16.64211764, "adm4_name": null, "adm4_name1": null, "adm4_name2": null, "adm4_name3": null, "adm4_pcode": null, "adm3_name": null, "adm3_name1": null, "adm3_name2": null, "adm3_name3": null, "adm3_pcode": null, "adm2_name": "Barkéol", "adm2_name1": null, "adm2_name2": null, "adm2_name3": null, "adm2_pcode": "MR031", "adm1_name": "Assaba", "adm1_name1": null, "adm1_name2": null, "adm1_name3": null, "adm1_pcode": "MR03", "adm0_name": "Mauritanie", "adm0_name1": null, "adm0_name2": null, "adm0_name3": null, "adm0_pcode": "MR", "valid_on": "2024-03-27", "valid_to": null, "version": "v03", "lang": "fr", "lang1": null, "lang2": null, "lang3": null }, "geometry": { "type": "Point", "coordinates": [ -12.442578161999961, 16.642117644000166 ] } },
{ "type": "Feature", "properties": { "admin_level": 2, "name": "Magtalahjar", "name1": null, "name2": null, "name3": null, "x_coord": -13.06141836, "y_coord": 17.65014376, "adm4_name": null, "adm4_name1": null, "adm4_name2": null, "adm4_name3": null, "adm4_pcode": null, "adm3_name": null, "adm3_name1": null, "adm3_name2": null, "adm3_name3": null, "adm3_pcode": null, "adm2_name": "Magtalahjar", "adm2_name1": null, "adm2_name2": null, "adm2_name3": null, "adm2_pcode": "MR054", "adm1_name": "Brakna", "adm1_name1": null, "adm1_name2": null, "adm1_name3": null, "adm1_pcode": "MR05", "adm0_name": "Mauritanie", "adm0_name1": null, "adm0_name2": null, "adm0_name3": null, "adm0_pcode": "MR", "valid_on": "2024-03-27", "valid_to": null, "version": "v03", "lang": "fr", "lang1": null, "lang2": null, "lang3": null }, "geometry": { "type": "Point", "coordinates": [ -13.061418359999891, 17.650143760000049 ] } },
{ "type": "Feature", "properties": { "admin_level": 2, "name": "Bababé", "name1": null, "name2": null, "name3": null, "x_coord": -13.94811637, "y_coord": 16.45655058, "adm4_name": null, "adm4_name1": null, "adm4_name2": null, "adm4_name3": null, "adm4_pcode": null, "adm3_name": null, "adm3_name1": null, "adm3_name2": null, "adm3_name3": null, "adm3_pcode": null, "adm2_name": "Bababé", "adm2_name1": null, "adm2_name2": null, "adm2_name3": null, "adm2_pcode": "MR052", "adm1_name": "Brakna", "adm1_name1": null, "adm1_name2": null, "adm1_name3": null, "adm1_pcode": "MR05", "adm0_name": "Mauritanie", "adm0_name1": null, "adm0_name2": null, "adm0_name3": null, "adm0_pcode": "MR", "valid_on": "2024-03-27", "valid_to": null, "version": "v03", "lang": "fr", "lang1": null, "lang2": null, "lang3": null }, "geometry": { "type": "Point", "coordinates": [ -13.948116365999965, 16.45655058400007 ] } },
{ "type": "Feature", "properties": { "admin_level": 2, "name": "Maal", "name1": null, "name2": null, "name3": null, "x_coord": -13.28097265, "y_coord": 16.8044725, "adm4_name": null, "adm4_name1": null, "adm4_name2": null, "adm4_name3": null, "adm4_pcode": null, "adm3_name": null, "adm3_name1": null, "adm3_name2": null, "adm3_name3": null, "adm3_pcode": null, "adm2_name": "Maal", "adm2_name1": null, "adm2_name2": null, "adm2_name3": null, "adm2_pcode": "MR056", "adm1_name": "Brakna", "adm1_name1": null, "adm1_name2": null, "adm1_name3": null, "adm1_pcode": "MR05", "adm0_name": "Mauritanie", "adm0_name1": null, "adm0_name2": null, "adm0_name3": null, "adm0_pcode": "MR", "valid_on": "2024-03-27", "valid_to": null, "version": "v03", "lang": "fr", "lang1": null, "lang2": null, "lang3": null }, "geometry": { "type": "Point", "coordinates": [ -13.280972652999878, 16.804472500000145 ] } },
{ "type": "Feature", "properties": { "admin_level": 2, "name": "M'Bagne", "name1": null, "name2": null, "name3": null, "x_coord": -13.77337759, "y_coord": 16.27250571, "adm4_name": null, "adm4_name1": null, "adm4_name2": null, "adm4_name3": null, "adm4_pcode": null, "adm3_name": null, "adm3_name1": null, "adm3_name2": null, "adm3_name3": null, "adm3_pcode": null, "adm2_name": "M'Bagne", "adm2_name1": null, "adm2_name2": null, "adm2_name3": null, "adm2_pcode": "MR055", "adm1_name": "Brakna", "adm1_name1": null, "adm1_name2": null, "adm1_name3": null, "adm1_pcode": "MR05", "adm0_name": "Mauritanie", "adm0_name1": null, "adm0_name2": null, "adm0_name3": null, "adm0_pcode": "MR", "valid_on": "2024-03-27", "valid_to": null, "version": "v03", "lang": "fr", "lang1": null, "lang2": null, "lang3": null }, "geometry": { "type": "Point", "coordinates": [ -13.773377593999953, 16.272505709000029 ] } },
{ "type": "Feature", "properties": { "admin_level": 2, "name": "Aleg", "name1": null, "name2": null, "name3": null, "x_coord": -13.80632804, "y_coord": 17.21829621, "adm4_name": null, "adm4_name1": null, "adm4_name2": null, "adm4_name3": null, "adm4_pcode": null, "adm3_name": null, "adm3_name1": null, "adm3_name2": null, "adm3_name3": null, "adm3_pcode": null, "adm2_name": "Aleg", "adm2_name1": null, "adm2_name2": null, "adm2_name3": null, "adm2_pcode": "MR051", "adm1_name": "Brakna", "adm1_name1": null, "adm1_name2": null, "adm1_name3": null, "adm1_pcode": "MR05", "adm0_name": "Mauritanie", "adm0_name1": null, "adm0_name2": null, "adm0_name3": null, "adm0_pcode": "MR", "valid_on": "2024-03-27", "valid_to": null, "version": "v03", "lang": "fr", "lang1": null, "lang2": null, "lang3": null }, "geometry": { "type": "Point", "coordinates": [ -13.806328038999936, 17.218296212999974 ] } },
{ "type": "Feature", "properties": { "admin_level": 2, "name": "Boghé", "name1": null, "name2": null, "name3": null, "x_coord": -14.37491754, "y_coord": 16.65196408, "adm4_name": null, "adm4_name1": null, "adm4_name2": null, "adm4_name3": null, "adm4_pcode": null, "adm3_name": null, "adm3_name1": null, "adm3_name2": null, "adm3_name3": null, "adm3_pcode": null, "adm2_name": "Boghé", "adm2_name1": null, "adm2_name2": null, "adm2_name3": null, "adm2_pcode": "MR053", "adm1_name": "Brakna", "adm1_name1": null, "adm1_name2": null, "adm1_name3": null, "adm1_pcode": "MR05", "adm0_name": "Mauritanie", "adm0_name1": null, "adm0_name2": null, "adm0_name3": null, "adm0_pcode": "MR", "valid_on": "2024-03-27", "valid_to": null, "version": "v03", "lang": "fr", "lang1": null, "lang2": null, "lang3": null }, "geometry": { "type": "Point", "coordinates": [ -14.374917543999914, 16.651964084000042 ] } },
{ "type": "Feature", "properties": { "admin_level": 2, "name": "Nouadhibou", "name1": null, "name2": null, "name3": null, "x_coord": -15.94873123, "y_coord": 20.92420818, "adm4_name": null, "adm4_name1": null, "adm4_name2": null, "adm4_name3": null, "adm4_pcode": null, "adm3_name": null, "adm3_name1": null, "adm3_name2": null, "adm3_name3": null, "adm3_pcode": null, "adm2_name": "Nouadhibou", "adm2_name1": null, "adm2_name2": null, "adm2_name3": null, "adm2_pcode": "MR081", "adm1_name": "Dakhlet Nouadhibou", "adm1_name1": null, "adm1_name2": null, "adm1_name3": null, "adm1_pcode": "MR08", "adm0_name": "Mauritanie", "adm0_name1": null, "adm0_name2": null, "adm0_name3": null, "adm0_pcode": "MR", "valid_on": "2024-03-27", "valid_to": null, "version": "v03", "lang": "fr", "lang1": null, "lang2": null, "lang3": null }, "geometry": { "type": "Point", "coordinates": [ -15.948731227999872, 20.924208176000093 ] } },
{ "type": "Feature", "properties": { "admin_level": 2, "name": "Chami", "name1": null, "name2": null, "name3": null, "x_coord": -15.89191438, "y_coord": 20.16793983, "adm4_name": null, "adm4_name1": null, "adm4_name2": null, "adm4_name3": null, "adm4_pcode": null, "adm3_name": null, "adm3_name1": null, "adm3_name2": null, "adm3_name3": null, "adm3_pcode": null, "adm2_name": "Chami", "adm2_name1": null, "adm2_name2": null, "adm2_name3": null, "adm2_pcode": "MR082", "adm1_name": "Dakhlet Nouadhibou", "adm1_name1": null, "adm1_name2": null, "adm1_name3": null, "adm1_pcode": "MR08", "adm0_name": "Mauritanie", "adm0_name1": null, "adm0_name2": null, "adm0_name3": null, "adm0_pcode": "MR", "valid_on": "2024-03-27", "valid_to": null, "version": "v03", "lang": "fr", "lang1": null, "lang2": null, "lang3": null }, "geometry": { "type": "Point", "coordinates": [ -15.891914377999967, 20.167939826000122 ] } },
{ "type": "Feature", "properties": { "admin_level": 2, "name": "Kaedi", "name1": null, "name2": null, "name3": null, "x_coord": -12.89985827, "y_coord": 15.95764445, "adm4_name": null, "adm4_name1": null, "adm4_name2": null, "adm4_name3": null, "adm4_pcode": null, "adm3_name": null, "adm3_name1": null, "adm3_name2": null, "adm3_name3": null, "adm3_pcode": null, "adm2_name": "Kaedi", "adm2_name1": null, "adm2_name2": null, "adm2_name3": null, "adm2_pcode": "MR041", "adm1_name": "Gorgol", "adm1_name1": null, "adm1_name2": null, "adm1_name3": null, "adm1_pcode": "MR04", "adm0_name": "Mauritanie", "adm0_name1": null, "adm0_name2": null, "adm0_name3": null, "adm0_pcode": "MR", "valid_on": "2024-03-27", "valid_to": null, "version": "v03", "lang": "fr", "lang1": null, "lang2": null, "lang3": null }, "geometry": { "type": "Point", "coordinates": [ -12.899858270999971, 15.957644449000156 ] } },
{ "type": "Feature", "properties": { "admin_level": 2, "name": "M'Bout", "name1": null, "name2": null, "name3": null, "x_coord": -12.37728705, "y_coord": 16.01444537, "adm4_name": null, "adm4_name1": null, "adm4_name2": null, "adm4_name3": null, "adm4_pcode": null, "adm3_name": null, "adm3_name1": null, "adm3_name2": null, "adm3_name3": null, "adm3_pcode": null, "adm2_name": "M'Bout", "adm2_name1": null, "adm2_name2": null, "adm2_name3": null, "adm2_pcode": "MR043", "adm1_name": "Gorgol", "adm1_name1": null, "adm1_name2": null, "adm1_name3": null, "adm1_pcode": "MR04", "adm0_name": "Mauritanie", "adm0_name1": null, "adm0_name2": null, "adm0_name3": null, "adm0_pcode": "MR", "valid_on": "2024-03-27", "valid_to": null, "version": "v03", "lang": "fr", "lang1": null, "lang2": null, "lang3": null }, "geometry": { "type": "Point", "coordinates": [ -12.377287051999929, 16.014445371000022 ] } },
{ "type": "Feature", "properties": { "admin_level": 2, "name": "Lexeibe 1", "name1": null, "name2": null, "name3": null, "x_coord": -13.06216562, "y_coord": 16.17436627, "adm4_name": null, "adm4_name1": null, "adm4_name2": null, "adm4_name3": null, "adm4_pcode": null, "adm3_name": null, "adm3_name1": null, "adm3_name2": null, "adm3_name3": null, "adm3_pcode": null, "adm2_name": "Lexeibe 1", "adm2_name1": null, "adm2_name2": null, "adm2_name3": null, "adm2_pcode": "MR045", "adm1_name": "Gorgol", "adm1_name1": null, "adm1_name2": null, "adm1_name3": null, "adm1_pcode": "MR04", "adm0_name": "Mauritanie", "adm0_name1": null, "adm0_name2": null, "adm0_name3": null, "adm0_pcode": "MR", "valid_on": "2024-03-27", "valid_to": null, "version": "v03", "lang": "fr", "lang1": null, "lang2": null, "lang3": null }, "geometry": { "type": "Point", "coordinates": [ -13.062165622999885, 16.174366266000106 ] } },
{ "type": "Feature", "properties": { "admin_level": 2, "name": "Maghama", "name1": null, "name2": null, "name3": null, "x_coord": -12.85387569, "y_coord": 15.53409945, "adm4_name": null, "adm4_name1": null, "adm4_name2": null, "adm4_name3": null, "adm4_pcode": null, "adm3_name": null, "adm3_name1": null, "adm3_name2": null, "adm3_name3": null, "adm3_pcode": null, "adm2_name": "Maghama", "adm2_name1": null, "adm2_name2": null, "adm2_name3": null, "adm2_pcode": "MR042", "adm1_name": "Gorgol", "adm1_name1": null, "adm1_name2": null, "adm1_name3": null, "adm1_pcode": "MR04", "adm0_name": "Mauritanie", "adm0_name1": null, "adm0_name2": null, "adm0_name3": null, "adm0_pcode": "MR", "valid_on": "2024-03-27", "valid_to": null, "version": "v03", "lang": "fr", "lang1": null, "lang2": null, "lang3": null }, "geometry": { "type": "Point", "coordinates": [ -12.853875689999938, 15.534099449000053 ] } },
{ "type": "Feature", "properties": { "admin_level": 2, "name": "Mounguel", "name1": null, "name2": null, "name3": null, "x_coord": -12.96706017, "y_coord": 16.48749446, "adm4_name": null, "adm4_name1": null, "adm4_name2": null, "adm4_name3": null, "adm4_pcode": null, "adm3_name": null, "adm3_name1": null, "adm3_name2": null, "adm3_name3": null, "adm3_pcode": null, "adm2_name": "Mounguel", "adm2_name1": null, "adm2_name2": null, "adm2_name3": null, "adm2_pcode": "MR044", "adm1_name": "Gorgol", "adm1_name1": null, "adm1_name2": null, "adm1_name3": null, "adm1_pcode": "MR04", "adm0_name": "Mauritanie", "adm0_name1": null, "adm0_name2": null, "adm0_name3": null, "adm0_pcode": "MR", "valid_on": "2024-03-27", "valid_to": null, "version": "v03", "lang": "fr", "lang1": null, "lang2": null, "lang3": null }, "geometry": { "type": "Point", "coordinates": [ -12.967060169999911, 16.487494455 ] } },
{ "type": "Feature", "properties": { "admin_level": 2, "name": "Wompou", "name1": null, "name2": null, "name3": null, "x_coord": -12.47560499, "y_coord": 15.36556095, "adm4_name": null, "adm4_name1": null, "adm4_name2": null, "adm4_name3": null, "adm4_pcode": null, "adm3_name": null, "adm3_name1": null, "adm3_name2": null, "adm3_name3": null, "adm3_pcode": null, "adm2_name": "Wompou", "adm2_name1": null, "adm2_name2": null, "adm2_name3": null, "adm2_pcode": "MR104", "adm1_name": "Guidimagha", "adm1_name1": null, "adm1_name2": null, "adm1_name3": null, "adm1_pcode": "MR10", "adm0_name": "Mauritanie", "adm0_name1": null, "adm0_name2": null, "adm0_name3": null, "adm0_pcode": "MR", "valid_on": "2024-03-27", "valid_to": null, "version": "v03", "lang": "fr", "lang1": null, "lang2": null, "lang3": null }, "geometry": { "type": "Point", "coordinates": [ -12.475604989999965, 15.365560948000109 ] } },
{ "type": "Feature", "properties": { "admin_level": 2, "name": "Sélibaby", "name1": null, "name2": null, "name3": null, "x_coord": -12.18025741, "y_coord": 15.48282539, "adm4_name": null, "adm4_name1": null, "adm4_name2": null, "adm4_name3": null, "adm4_pcode": null, "adm3_name": null, "adm3_name1": null, "adm3_name2": null, "adm3_name3": null, "adm3_pcode": null, "adm2_name": "Sélibaby", "adm2_name1": null, "adm2_name2": null, "adm2_name3": null, "adm2_pcode": "MR102", "adm1_name": "Guidimagha", "adm1_name1": null, "adm1_name2": null, "adm1_name3": null, "adm1_pcode": "MR10", "adm0_name": "Mauritanie", "adm0_name1": null, "adm0_name2": null, "adm0_name3": null, "adm0_pcode": "MR", "valid_on": "2024-03-27", "valid_to": null, "version": "v03", "lang": "fr", "lang1": null, "lang2": null, "lang3": null }, "geometry": { "type": "Point", "coordinates": [ -12.180257407999932, 15.482825388000151 ] } },
{ "type": "Feature", "properties": { "admin_level": 2, "name": "Ghabou", "name1": null, "name2": null, "name3": null, "x_coord": -12.17351613, "y_coord": 15.02939895, "adm4_name": null, "adm4_name1": null, "adm4_name2": null, "adm4_name3": null, "adm4_pcode": null, "adm3_name": null, "adm3_name1": null, "adm3_name2": null, "adm3_name3": null, "adm3_pcode": null, "adm2_name": "Ghabou", "adm2_name1": null, "adm2_name2": null, "adm2_name3": null, "adm2_pcode": "MR103", "adm1_name": "Guidimagha", "adm1_name1": null, "adm1_name2": null, "adm1_name3": null, "adm1_pcode": "MR10", "adm0_name": "Mauritanie", "adm0_name1": null, "adm0_name2": null, "adm0_name3": null, "adm0_pcode": "MR", "valid_on": "2024-03-27", "valid_to": null, "version": "v03", "lang": "fr", "lang1": null, "lang2": null, "lang3": null }, "geometry": { "type": "Point", "coordinates": [ -12.173516126999857, 15.02939894900004 ] } },
{ "type": "Feature", "properties": { "admin_level": 2, "name": "Ould Yengé", "name1": null, "name2": null, "name3": null, "x_coord": -11.90171857, "y_coord": 15.62412721, "adm4_name": null, "adm4_name1": null, "adm4_name2": null, "adm4_name3": null, "adm4_pcode": null, "adm3_name": null, "adm3_name1": null, "adm3_name2": null, "adm3_name3": null, "adm3_pcode": null, "adm2_name": "Ould Yengé", "adm2_name1": null, "adm2_name2": null, "adm2_name3": null, "adm2_pcode": "MR101", "adm1_name": "Guidimagha", "adm1_name1": null, "adm1_name2": null, "adm1_name3": null, "adm1_pcode": "MR10", "adm0_name": "Mauritanie", "adm0_name1": null, "adm0_name2": null, "adm0_name3": null, "adm0_pcode": "MR", "valid_on": "2024-03-27", "valid_to": null, "version": "v03", "lang": "fr", "lang1": null, "lang2": null, "lang3": null }, "geometry": { "type": "Point", "coordinates": [ -11.901718565999886, 15.624127207000186 ] } },
{ "type": "Feature", "properties": { "admin_level": 2, "name": "Djiguenni", "name1": null, "name2": null, "name3": null, "x_coord": -8.78455743, "y_coord": 16.01855374, "adm4_name": null, "adm4_name1": null, "adm4_name2": null, "adm4_name3": null, "adm4_pcode": null, "adm3_name": null, "adm3_name1": null, "adm3_name2": null, "adm3_name3": null, "adm3_pcode": null, "adm2_name": "Djiguenni", "adm2_name1": null, "adm2_name2": null, "adm2_name3": null, "adm2_pcode": "MR013", "adm1_name": "Hodh Chargui", "adm1_name1": null, "adm1_name2": null, "adm1_name3": null, "adm1_pcode": "MR01", "adm0_name": "Mauritanie", "adm0_name1": null, "adm0_name2": null, "adm0_name3": null, "adm0_pcode": "MR", "valid_on": "2024-03-27", "valid_to": null, "version": "v03", "lang": "fr", "lang1": null, "lang2": null, "lang3": null }, "geometry": { "type": "Point", "coordinates": [ -8.784557430999939, 16.018553742 ] } },
{ "type": "Feature", "properties": { "admin_level": 2, "name": "Adel Bagrou", "name1": null, "name2": null, "name3": null, "x_coord": -6.65320075, "y_coord": 15.8087085, "adm4_name": null, "adm4_name1": null, "adm4_name2": null, "adm4_name3": null, "adm4_pcode": null, "adm3_name": null, "adm3_name1": null, "adm3_name2": null, "adm3_name3": null, "adm3_pcode": null, "adm2_name": "Adel Bagrou", "adm2_name1": null, "adm2_name2": null, "adm2_name3": null, "adm2_pcode": "MR018", "adm1_name": "Hodh Chargui", "adm1_name1": null, "adm1_name2": null, "adm1_name3": null, "adm1_pcode": "MR01", "adm0_name": "Mauritanie", "adm0_name1": null, "adm0_name2": null, "adm0_name3": null, "adm0_pcode": "MR", "valid_on": "2024-03-27", "valid_to": null, "version": "v03", "lang": "fr", "lang1": null, "lang2": null, "lang3": null }, "geometry": { "type": "Point", "coordinates": [ -6.653200747999961, 15.808708499999966 ] } },
{ "type": "Feature", "properties": { "admin_level": 2, "name": "Oualata", "name1": null, "name2": null, "name3": null, "x_coord": -6.92418117, "y_coord": 19.88738734, "adm4_name": null, "adm4_name1": null, "adm4_name2": null, "adm4_name3": null, "adm4_pcode": null, "adm3_name": null, "adm3_name1": null, "adm3_name2": null, "adm3_name3": null, "adm3_pcode": null, "adm2_name": "Oualata", "adm2_name1": null, "adm2_name2": null, "adm2_name3": null, "adm2_pcode": "MR015", "adm1_name": "Hodh Chargui", "adm1_name1": null, "adm1_name2": null, "adm1_name3": null, "adm1_pcode": "MR01", "adm0_name": "Mauritanie", "adm0_name1": null, "adm0_name2": null, "adm0_name3": null, "adm0_pcode": "MR", "valid_on": "2024-03-27", "valid_to": null, "version": "v03", "lang": "fr", "lang1": null, "lang2": null, "lang3": null }, "geometry": { "type": "Point", "coordinates": [ -6.924181172999965, 19.887387336000188 ] } },
{ "type": "Feature", "properties": { "admin_level": 2, "name": "N'Beiket Lehwach", "name1": null, "name2": null, "name3": null, "x_coord": -6.10749595, "y_coord": 18.54860122, "adm4_name": null, "adm4_name1": null, "adm4_name2": null, "adm4_name3": null, "adm4_pcode": null, "adm3_name": null, "adm3_name1": null, "adm3_name2": null, "adm3_name3": null, "adm3_pcode": null, "adm2_name": "N'Beiket Lehwach", "adm2_name1": null, "adm2_name2": null, "adm2_name3": null, "adm2_pcode": "MR017", "adm1_name": "Hodh Chargui", "adm1_name1": null, "adm1_name2": null, "adm1_name3": null, "adm1_pcode": "MR01", "adm0_name": "Mauritanie", "adm0_name1": null, "adm0_name2": null, "adm0_name3": null, "adm0_pcode": "MR", "valid_on": "2024-03-27", "valid_to": null, "version": "v03", "lang": "fr", "lang1": null, "lang2": null, "lang3": null }, "geometry": { "type": "Point", "coordinates": [ -6.107495953999944, 18.548601216000179 ] } },
{ "type": "Feature", "properties": { "admin_level": 2, "name": "Timbédra", "name1": null, "name2": null, "name3": null, "x_coord": -8.2156154, "y_coord": 16.21844208, "adm4_name": null, "adm4_name1": null, "adm4_name2": null, "adm4_name3": null, "adm4_pcode": null, "adm3_name": null, "adm3_name1": null, "adm3_name2": null, "adm3_name3": null, "adm3_pcode": null, "adm2_name": "Timbédra", "adm2_name1": null, "adm2_name2": null, "adm2_name3": null, "adm2_pcode": "MR016", "adm1_name": "Hodh Chargui", "adm1_name1": null, "adm1_name2": null, "adm1_name3": null, "adm1_pcode": "MR01", "adm0_name": "Mauritanie", "adm0_name1": null, "adm0_name2": null, "adm0_name3": null, "adm0_pcode": "MR", "valid_on": "2024-03-27", "valid_to": null, "version": "v03", "lang": "fr", "lang1": null, "lang2": null, "lang3": null }, "geometry": { "type": "Point", "coordinates": [ -8.215615395999976, 16.218442077000191 ] } },
{ "type": "Feature", "properties": { "admin_level": 2, "name": "Bassiknou", "name1": null, "name2": null, "name3": null, "x_coord": -6.08606232, "y_coord": 16.17102707, "adm4_name": null, "adm4_name1": null, "adm4_name2": null, "adm4_name3": null, "adm4_pcode": null, "adm3_name": null, "adm3_name1": null, "adm3_name2": null, "adm3_name3": null, "adm3_pcode": null, "adm2_name": "Bassiknou", "adm2_name1": null, "adm2_name2": null, "adm2_name3": null, "adm2_pcode": "MR012", "adm1_name": "Hodh Chargui", "adm1_name1": null, "adm1_name2": null, "adm1_name3": null, "adm1_pcode": "MR01", "adm0_name": "Mauritanie", "adm0_name1": null, "adm0_name2": null, "adm0_name3": null, "adm0_pcode": "MR", "valid_on": "2024-03-27", "valid_to": null, "version": "v03", "lang": "fr", "lang1": null, "lang2": null, "lang3": null }, "geometry": { "type": "Point", "coordinates": [ -6.086062324999943, 16.171027066000022 ] } },
{ "type": "Feature", "properties": { "admin_level": 2, "name": "Néma", "name1": null, "name2": null, "name3": null, "x_coord": -7.33255452, "y_coord": 16.36039513, "adm4_name": null, "adm4_name1": null, "adm4_name2": null, "adm4_name3": null, "adm4_pcode": null, "adm3_name": null, "adm3_name1": null, "adm3_name2": null, "adm3_name3": null, "adm3_pcode": null, "adm2_name": "Néma", "adm2_name1": null, "adm2_name2": null, "adm2_name3": null, "adm2_pcode": "MR014", "adm1_name": "Hodh Chargui", "adm1_name1": null, "adm1_name2": null, "adm1_name3": null, "adm1_pcode": "MR01", "adm0_name": "Mauritanie", "adm0_name1": null, "adm0_name2": null, "adm0_name3": null, "adm0_pcode": "MR", "valid_on": "2024-03-27", "valid_to": null, "version": "v03", "lang": "fr", "lang1": null, "lang2": null, "lang3": null }, "geometry": { "type": "Point", "coordinates": [ -7.332554523999875, 16.360395134000044 ] } },
{ "type": "Feature", "properties": { "admin_level": 2, "name": "Amourj", "name1": null, "name2": null, "name3": null, "x_coord": -7.39163968, "y_coord": 15.8396165, "adm4_name": null, "adm4_name1": null, "adm4_name2": null, "adm4_name3": null, "adm4_pcode": null, "adm3_name": null, "adm3_name1": null, "adm3_name2": null, "adm3_name3": null, "adm3_pcode": null, "adm2_name": "Amourj", "adm2_name1": null, "adm2_name2": null, "adm2_name3": null, "adm2_pcode": "MR011", "adm1_name": "Hodh Chargui", "adm1_name1": null, "adm1_name2": null, "adm1_name3": null, "adm1_pcode": "MR01", "adm0_name": "Mauritanie", "adm0_name1": null, "adm0_name2": null, "adm0_name3": null, "adm0_pcode": "MR", "valid_on": "2024-03-27", "valid_to": null, "version": "v03", "lang": "fr", "lang1": null, "lang2": null, "lang3": null }, "geometry": { "type": "Point", "coordinates": [ -7.391639677999876, 15.839616500000091 ] } },
{ "type": "Feature", "properties": { "admin_level": 2, "name": "Tamchekett", "name1": null, "name2": null, "name3": null, "x_coord": -10.44343299, "y_coord": 17.11697956, "adm4_name": null, "adm4_name1": null, "adm4_name2": null, "adm4_name3": null, "adm4_pcode": null, "adm3_name": null, "adm3_name1": null, "adm3_name2": null, "adm3_name3": null, "adm3_pcode": null, "adm2_name": "Tamchekett", "adm2_name1": null, "adm2_name2": null, "adm2_name3": null, "adm2_pcode": "MR023", "adm1_name": "Hodh El Gharbi", "adm1_name1": null, "adm1_name2": null, "adm1_name3": null, "adm1_pcode": "MR02", "adm0_name": "Mauritanie", "adm0_name1": null, "adm0_name2": null, "adm0_name3": null, "adm0_pcode": "MR", "valid_on": "2024-03-27", "valid_to": null, "version": "v03", "lang": "fr", "lang1": null, "lang2": null, "lang3": null }, "geometry": { "type": "Point", "coordinates": [ -10.443432986999937, 17.116979565000179 ] } },
{ "type": "Feature", "properties": { "admin_level": 2, "name": "Aïoun", "name1": null, "name2": null, "name3": null, "x_coord": -9.27189143, "y_coord": 16.7270679, "adm4_name": null, "adm4_name1": null, "adm4_name2": null, "adm4_name3": null, "adm4_pcode": null, "adm3_name": null, "adm3_name1": null, "adm3_name2": null, "adm3_name3": null, "adm3_pcode": null, "adm2_name": "Aïoun", "adm2_name1": null, "adm2_name2": null, "adm2_name3": null, "adm2_pcode": "MR021", "adm1_name": "Hodh El Gharbi", "adm1_name1": null, "adm1_name2": null, "adm1_name3": null, "adm1_pcode": "MR02", "adm0_name": "Mauritanie", "adm0_name1": null, "adm0_name2": null, "adm0_name3": null, "adm0_pcode": "MR", "valid_on": "2024-03-27", "valid_to": null, "version": "v03", "lang": "fr", "lang1": null, "lang2": null, "lang3": null }, "geometry": { "type": "Point", "coordinates": [ -9.271891431999904, 16.727067896000108 ] } },
{ "type": "Feature", "properties": { "admin_level": 2, "name": "Kobeni", "name1": null, "name2": null, "name3": null, "x_coord": -9.45232476, "y_coord": 15.90237946, "adm4_name": null, "adm4_name1": null, "adm4_name2": null, "adm4_name3": null, "adm4_pcode": null, "adm3_name": null, "adm3_name1": null, "adm3_name2": null, "adm3_name3": null, "adm3_pcode": null, "adm2_name": "Kobeni", "adm2_name1": null, "adm2_name2": null, "adm2_name3": null, "adm2_pcode": "MR022", "adm1_name": "Hodh El Gharbi", "adm1_name1": null, "adm1_name2": null, "adm1_name3": null, "adm1_pcode": "MR02", "adm0_name": "Mauritanie", "adm0_name1": null, "adm0_name2": null, "adm0_name3": null, "adm0_pcode": "MR", "valid_on": "2024-03-27", "valid_to": null, "version": "v03", "lang": "fr", "lang1": null, "lang2": null, "lang3": null }, "geometry": { "type": "Point", "coordinates": [ -9.452324761999876, 15.902379462000113 ] } },
{ "type": "Feature", "properties": { "admin_level": 2, "name": "Touil", "name1": null, "name2": null, "name3": null, "x_coord": -10.25393105, "y_coord": 15.55631461, "adm4_name": null, "adm4_name1": null, "adm4_name2": null, "adm4_name3": null, "adm4_pcode": null, "adm3_name": null, "adm3_name1": null, "adm3_name2": null, "adm3_name3": null, "adm3_pcode": null, "adm2_name": "Touil", "adm2_name1": null, "adm2_name2": null, "adm2_name3": null, "adm2_pcode": "MR025", "adm1_name": "Hodh El Gharbi", "adm1_name1": null, "adm1_name2": null, "adm1_name3": null, "adm1_pcode": "MR02", "adm0_name": "Mauritanie", "adm0_name1": null, "adm0_name2": null, "adm0_name3": null, "adm0_pcode": "MR", "valid_on": "2024-03-27", "valid_to": null, "version": "v03", "lang": "fr", "lang1": null, "lang2": null, "lang3": null }, "geometry": { "type": "Point", "coordinates": [ -10.253931050999938, 15.55631460900014 ] } },
{ "type": "Feature", "properties": { "admin_level": 2, "name": "Tintane", "name1": null, "name2": null, "name3": null, "x_coord": -10.34489043, "y_coord": 16.10972232, "adm4_name": null, "adm4_name1": null, "adm4_name2": null, "adm4_name3": null, "adm4_pcode": null, "adm3_name": null, "adm3_name1": null, "adm3_name2": null, "adm3_name3": null, "adm3_pcode": null, "adm2_name": "Tintane", "adm2_name1": null, "adm2_name2": null, "adm2_name3": null, "adm2_pcode": "MR024", "adm1_name": "Hodh El Gharbi", "adm1_name1": null, "adm1_name2": null, "adm1_name3": null, "adm1_pcode": "MR02", "adm0_name": "Mauritanie", "adm0_name1": null, "adm0_name2": null, "adm0_name3": null, "adm0_pcode": "MR", "valid_on": "2024-03-27", "valid_to": null, "version": "v03", "lang": "fr", "lang1": null, "lang2": null, "lang3": null }, "geometry": { "type": "Point", "coordinates": [ -10.344890431999943, 16.109722317000148 ] } },
{ "type": "Feature", "properties": { "admin_level": 2, "name": "Bennechab", "name1": null, "name2": null, "name3": null, "x_coord": -15.15265477, "y_coord": 19.55010333, "adm4_name": null, "adm4_name1": null, "adm4_name2": null, "adm4_name3": null, "adm4_pcode": null, "adm3_name": null, "adm3_name1": null, "adm3_name2": null, "adm3_name3": null, "adm3_pcode": null, "adm2_name": "Bennechab", "adm2_name1": null, "adm2_name2": null, "adm2_name3": null, "adm2_pcode": "MR122", "adm1_name": "Inchiri", "adm1_name1": null, "adm1_name2": null, "adm1_name3": null, "adm1_pcode": "MR12", "adm0_name": "Mauritanie", "adm0_name1": null, "adm0_name2": null, "adm0_name3": null, "adm0_pcode": "MR", "valid_on": "2024-03-27", "valid_to": null, "version": "v03", "lang": "fr", "lang1": null, "lang2": null, "lang3": null }, "geometry": { "type": "Point", "coordinates": [ -15.152654770999959, 19.550103333000038 ] } },
{ "type": "Feature", "properties": { "admin_level": 2, "name": "Akjoujt", "name1": null, "name2": null, "name3": null, "x_coord": -14.240971, "y_coord": 19.90570003, "adm4_name": null, "adm4_name1": null, "adm4_name2": null, "adm4_name3": null, "adm4_pcode": null, "adm3_name": null, "adm3_name1": null, "adm3_name2": null, "adm3_name3": null, "adm3_pcode": null, "adm2_name": "Akjoujt", "adm2_name1": null, "adm2_name2": null, "adm2_name3": null, "adm2_pcode": "MR121", "adm1_name": "Inchiri", "adm1_name1": null, "adm1_name2": null, "adm1_name3": null, "adm1_pcode": "MR12", "adm0_name": "Mauritanie", "adm0_name1": null, "adm0_name2": null, "adm0_name3": null, "adm0_pcode": "MR", "valid_on": "2024-03-27", "valid_to": null, "version": "v03", "lang": "fr", "lang1": null, "lang2": null, "lang3": null }, "geometry": { "type": "Point", "coordinates": [ -14.24097099699992, 19.905700028000126 ] } },
{ "type": "Feature", "properties": { "admin_level": 2, "name": "Toujounine", "name1": null, "name2": null, "name3": null, "x_coord": -15.92945041, "y_coord": 18.17141046, "adm4_name": null, "adm4_name1": null, "adm4_name2": null, "adm4_name3": null, "adm4_pcode": null, "adm3_name": null, "adm3_name1": null, "adm3_name2": null, "adm3_name3": null, "adm3_pcode": null, "adm2_name": "Toujounine", "adm2_name1": null, "adm2_name2": null, "adm2_name3": null, "adm2_pcode": "MR141", "adm1_name": "Nouakchott Nord", "adm1_name1": null, "adm1_name2": null, "adm1_name3": null, "adm1_pcode": "MR14", "adm0_name": "Mauritanie", "adm0_name1": null, "adm0_name2": null, "adm0_name3": null, "adm0_pcode": "MR", "valid_on": "2024-03-27", "valid_to": null, "version": "v03", "lang": "fr", "lang1": null, "lang2": null, "lang3": null }, "geometry": { "type": "Point", "coordinates": [ -15.929450406999933, 18.171410456999979 ] } },
{ "type": "Feature", "properties": { "admin_level": 2, "name": "Dar Naïm", "name1": null, "name2": null, "name3": null, "x_coord": -15.91239142, "y_coord": 18.12151983, "adm4_name": null, "adm4_name1": null, "adm4_name2": null, "adm4_name3": null, "adm4_pcode": null, "adm3_name": null, "adm3_name1": null, "adm3_name2": null, "adm3_name3": null, "adm3_pcode": null, "adm2_name": "Dar Naïm", "adm2_name1": null, "adm2_name2": null, "adm2_name3": null, "adm2_pcode": "MR142", "adm1_name": "Nouakchott Nord", "adm1_name1": null, "adm1_name2": null, "adm1_name3": null, "adm1_pcode": "MR14", "adm0_name": "Mauritanie", "adm0_name1": null, "adm0_name2": null, "adm0_name3": null, "adm0_pcode": "MR", "valid_on": "2024-03-27", "valid_to": null, "version": "v03", "lang": "fr", "lang1": null, "lang2": null, "lang3": null }, "geometry": { "type": "Point", "coordinates": [ -15.91239141899996, 18.121519832000047 ] } },
{ "type": "Feature", "properties": { "admin_level": 2, "name": "Teyarett", "name1": null, "name2": null, "name3": null, "x_coord": -15.88772634, "y_coord": 18.06654063, "adm4_name": null, "adm4_name1": null, "adm4_name2": null, "adm4_name3": null, "adm4_pcode": null, "adm3_name": null, "adm3_name1": null, "adm3_name2": null, "adm3_name3": null, "adm3_pcode": null, "adm2_name": "Teyarett", "adm2_name1": null, "adm2_name2": null, "adm2_name3": null, "adm2_pcode": "MR143", "adm1_name": "Nouakchott Nord", "adm1_name1": null, "adm1_name2": null, "adm1_name3": null, "adm1_pcode": "MR14", "adm0_name": "Mauritanie", "adm0_name1": null, "adm0_name2": null, "adm0_name3": null, "adm0_pcode": "MR", "valid_on": "2024-03-27", "valid_to": null, "version": "v03", "lang": "fr", "lang1": null, "lang2": null, "lang3": null }, "geometry": { "type": "Point", "coordinates": [ -15.887726338999926, 18.066540630000077 ] } },
{ "type": "Feature", "properties": { "admin_level": 2, "name": "Sebkha", "name1": null, "name2": null, "name3": null, "x_coord": -16.00768071, "y_coord": 18.07707547, "adm4_name": null, "adm4_name1": null, "adm4_name2": null, "adm4_name3": null, "adm4_pcode": null, "adm3_name": null, "adm3_name1": null, "adm3_name2": null, "adm3_name3": null, "adm3_pcode": null, "adm2_name": "Sebkha", "adm2_name1": null, "adm2_name2": null, "adm2_name3": null, "adm2_pcode": "MR133", "adm1_name": "Nouakchott Ouest", "adm1_name1": null, "adm1_name2": null, "adm1_name3": null, "adm1_pcode": "MR13", "adm0_name": "Mauritanie", "adm0_name1": null, "adm0_name2": null, "adm0_name3": null, "adm0_pcode": "MR", "valid_on": "2024-03-27", "valid_to": null, "version": "v03", "lang": "fr", "lang1": null, "lang2": null, "lang3": null }, "geometry": { "type": "Point", "coordinates": [ -16.007680707999953, 18.077075472000104 ] } },
{ "type": "Feature", "properties": { "admin_level": 2, "name": "Ksar", "name1": null, "name2": null, "name3": null, "x_coord": -15.93142075, "y_coord": 18.33033152, "adm4_name": null, "adm4_name1": null, "adm4_name2": null, "adm4_name3": null, "adm4_pcode": null, "adm3_name": null, "adm3_name1": null, "adm3_name2": null, "adm3_name3": null, "adm3_pcode": null, "adm2_name": "Ksar", "adm2_name1": null, "adm2_name2": null, "adm2_name3": null, "adm2_pcode": "MR131", "adm1_name": "Nouakchott Ouest", "adm1_name1": null, "adm1_name2": null, "adm1_name3": null, "adm1_pcode": "MR13", "adm0_name": "Mauritanie", "adm0_name1": null, "adm0_name2": null, "adm0_name3": null, "adm0_pcode": "MR", "valid_on": "2024-03-27", "valid_to": null, "version": "v03", "lang": "fr", "lang1": null, "lang2": null, "lang3": null }, "geometry": { "type": "Point", "coordinates": [ -15.931420751999951, 18.33033151800015 ] } },
{ "type": "Feature", "properties": { "admin_level": 2, "name": "Tevragh Zeina", "name1": null, "name2": null, "name3": null, "x_coord": -16.01606605, "y_coord": 18.2998379, "adm4_name": null, "adm4_name1": null, "adm4_name2": null, "adm4_name3": null, "adm4_pcode": null, "adm3_name": null, "adm3_name1": null, "adm3_name2": null, "adm3_name3": null, "adm3_pcode": null, "adm2_name": "Tevragh Zeina", "adm2_name1": null, "adm2_name2": null, "adm2_name3": null, "adm2_pcode": "MR132", "adm1_name": "Nouakchott Ouest", "adm1_name1": null, "adm1_name2": null, "adm1_name3": null, "adm1_pcode": "MR13", "adm0_name": "Mauritanie", "adm0_name1": null, "adm0_name2": null, "adm0_name3": null, "adm0_pcode": "MR", "valid_on": "2024-03-27", "valid_to": null, "version": "v03", "lang": "fr", "lang1": null, "lang2": null, "lang3": null }, "geometry": { "type": "Point", "coordinates": [ -16.016066051999928, 18.299837899000124 ] } },
{ "type": "Feature", "properties": { "admin_level": 2, "name": "Arafat", "name1": null, "name2": null, "name3": null, "x_coord": -15.95863188, "y_coord": 18.05439592, "adm4_name": null, "adm4_name1": null, "adm4_name2": null, "adm4_name3": null, "adm4_pcode": null, "adm3_name": null, "adm3_name1": null, "adm3_name2": null, "adm3_name3": null, "adm3_pcode": null, "adm2_name": "Arafat", "adm2_name1": null, "adm2_name2": null, "adm2_name3": null, "adm2_pcode": "MR152", "adm1_name": "Nouakchott Sud", "adm1_name1": null, "adm1_name2": null, "adm1_name3": null, "adm1_pcode": "MR15", "adm0_name": "Mauritanie", "adm0_name1": null, "adm0_name2": null, "adm0_name3": null, "adm0_pcode": "MR", "valid_on": "2024-03-27", "valid_to": null, "version": "v03", "lang": "fr", "lang1": null, "lang2": null, "lang3": null }, "geometry": { "type": "Point", "coordinates": [ -15.958631881999963, 18.05439592200014 ] } },
{ "type": "Feature", "properties": { "admin_level": 2, "name": "El Mina", "name1": null, "name2": null, "name3": null, "x_coord": -16.0054931, "y_coord": 17.94631057, "adm4_name": null, "adm4_name1": null, "adm4_name2": null, "adm4_name3": null, "adm4_pcode": null, "adm3_name": null, "adm3_name1": null, "adm3_name2": null, "adm3_name3": null, "adm3_pcode": null, "adm2_name": "El Mina", "adm2_name1": null, "adm2_name2": null, "adm2_name3": null, "adm2_pcode": "MR151", "adm1_name": "Nouakchott Sud", "adm1_name1": null, "adm1_name2": null, "adm1_name3": null, "adm1_pcode": "MR15", "adm0_name": "Mauritanie", "adm0_name1": null, "adm0_name2": null, "adm0_name3": null, "adm0_pcode": "MR", "valid_on": "2024-03-27", "valid_to": null, "version": "v03", "lang": "fr", "lang1": null, "lang2": null, "lang3": null }, "geometry": { "type": "Point", "coordinates": [ -16.005493096999942, 17.946310572000186 ] } },
{ "type": "Feature", "properties": { "admin_level": 2, "name": "Riad", "name1": null, "name2": null, "name3": null, "x_coord": -15.90843701, "y_coord": 17.97091681, "adm4_name": null, "adm4_name1": null, "adm4_name2": null, "adm4_name3": null, "adm4_pcode": null, "adm3_name": null, "adm3_name1": null, "adm3_name2": null, "adm3_name3": null, "adm3_pcode": null, "adm2_name": "Riad", "adm2_name1": null, "adm2_name2": null, "adm2_name3": null, "adm2_pcode": "MR153", "adm1_name": "Nouakchott Sud", "adm1_name1": null, "adm1_name2": null, "adm1_name3": null, "adm1_pcode": "MR15", "adm0_name": "Mauritanie", "adm0_name1": null, "adm0_name2": null, "adm0_name3": null, "adm0_pcode": "MR", "valid_on": "2024-03-27", "valid_to": null, "version": "v03", "lang": "fr", "lang1": null, "lang2": null, "lang3": null }, "geometry": { "type": "Point", "coordinates": [ -15.908437008999954, 17.970916805000115 ] } },
{ "type": "Feature", "properties": { "admin_level": 2, "name": "Moudjeria", "name1": null, "name2": null, "name3": null, "x_coord": -12.13743477, "y_coord": 17.98816129, "adm4_name": null, "adm4_name1": null, "adm4_name2": null, "adm4_name3": null, "adm4_pcode": null, "adm3_name": null, "adm3_name1": null, "adm3_name2": null, "adm3_name3": null, "adm3_pcode": null, "adm2_name": "Moudjeria", "adm2_name1": null, "adm2_name2": null, "adm2_name3": null, "adm2_pcode": "MR091", "adm1_name": "Tagant", "adm1_name1": null, "adm1_name2": null, "adm1_name3": null, "adm1_pcode": "MR09", "adm0_name": "Mauritanie", "adm0_name1": null, "adm0_name2": null, "adm0_name3": null, "adm0_pcode": "MR", "valid_on": "2024-03-27", "valid_to": null, "version": "v03", "lang": "fr", "lang1": null, "lang2": null, "lang3": null }, "geometry": { "type": "Point", "coordinates": [ -12.137434770999903, 17.988161289000175 ] } },
{ "type": "Feature", "properties": { "admin_level": 2, "name": "Tichit", "name1": null, "name2": null, "name3": null, "x_coord": -9.72958749, "y_coord": 18.53744218, "adm4_name": null, "adm4_name1": null, "adm4_name2": null, "adm4_name3": null, "adm4_pcode": null, "adm3_name": null, "adm3_name1": null, "adm3_name2": null, "adm3_name3": null, "adm3_pcode": null, "adm2_name": "Tichit", "adm2_name1": null, "adm2_name2": null, "adm2_name3": null, "adm2_pcode": "MR092", "adm1_name": "Tagant", "adm1_name1": null, "adm1_name2": null, "adm1_name3": null, "adm1_pcode": "MR09", "adm0_name": "Mauritanie", "adm0_name1": null, "adm0_name2": null, "adm0_name3": null, "adm0_pcode": "MR", "valid_on": "2024-03-27", "valid_to": null, "version": "v03", "lang": "fr", "lang1": null, "lang2": null, "lang3": null }, "geometry": { "type": "Point", "coordinates": [ -9.729587494999976, 18.537442175000137 ] } },
{ "type": "Feature", "properties": { "admin_level": 2, "name": "Tidjikja", "name1": null, "name2": null, "name3": null, "x_coord": -11.55040553, "y_coord": 18.44076278, "adm4_name": null, "adm4_name1": null, "adm4_name2": null, "adm4_name3": null, "adm4_pcode": null, "adm3_name": null, "adm3_name1": null, "adm3_name2": null, "adm3_name3": null, "adm3_pcode": null, "adm2_name": "Tidjikja", "adm2_name1": null, "adm2_name2": null, "adm2_name3": null, "adm2_pcode": "MR093", "adm1_name": "Tagant", "adm1_name1": null, "adm1_name2": null, "adm1_name3": null, "adm1_pcode": "MR09", "adm0_name": "Mauritanie", "adm0_name1": null, "adm0_name2": null, "adm0_name3": null, "adm0_pcode": "MR", "valid_on": "2024-03-27", "valid_to": null, "version": "v03", "lang": "fr", "lang1": null, "lang2": null, "lang3": null }, "geometry": { "type": "Point", "coordinates": [ -11.550405534999982, 18.440762778000078 ] } },
{ "type": "Feature", "properties": { "admin_level": 2, "name": "Bir Moughrein", "name1": null, "name2": null, "name3": null, "x_coord": -7.69542565, "y_coord": 26.16267002, "adm4_name": null, "adm4_name1": null, "adm4_name2": null, "adm4_name3": null, "adm4_pcode": null, "adm3_name": null, "adm3_name1": null, "adm3_name2": null, "adm3_name3": null, "adm3_pcode": null, "adm2_name": "Bir Moughrein", "adm2_name1": null, "adm2_name2": null, "adm2_name3": null, "adm2_pcode": "MR111", "adm1_name": "Tiris Zemmour", "adm1_name1": null, "adm1_name2": null, "adm1_name3": null, "adm1_pcode": "MR11", "adm0_name": "Mauritanie", "adm0_name1": null, "adm0_name2": null, "adm0_name3": null, "adm0_pcode": "MR", "valid_on": "2024-03-27", "valid_to": null, "version": "v03", "lang": "fr", "lang1": null, "lang2": null, "lang3": null }, "geometry": { "type": "Point", "coordinates": [ -7.695425651999869, 26.162670019000132 ] } },
{ "type": "Feature", "properties": { "admin_level": 2, "name": "Zoueirat", "name1": null, "name2": null, "name3": null, "x_coord": -12.35255274, "y_coord": 22.72601386, "adm4_name": null, "adm4_name1": null, "adm4_name2": null, "adm4_name3": null, "adm4_pcode": null, "adm3_name": null, "adm3_name1": null, "adm3_name2": null, "adm3_name3": null, "adm3_pcode": null, "adm2_name": "Zoueirat", "adm2_name1": null, "adm2_name2": null, "adm2_name3": null, "adm2_pcode": "MR113", "adm1_name": "Tiris Zemmour", "adm1_name1": null, "adm1_name2": null, "adm1_name3": null, "adm1_pcode": "MR11", "adm0_name": "Mauritanie", "adm0_name1": null, "adm0_name2": null, "adm0_name3": null, "adm0_pcode": "MR", "valid_on": "2024-03-27", "valid_to": null, "version": "v03", "lang": "fr", "lang1": null, "lang2": null, "lang3": null }, "geometry": { "type": "Point", "coordinates": [ -12.35255274099984, 22.726013862000173 ] } },
{ "type": "Feature", "properties": { "admin_level": 2, "name": "F'Deirick", "name1": null, "name2": null, "name3": null, "x_coord": -10.60456716, "y_coord": 23.19947142, "adm4_name": null, "adm4_name1": null, "adm4_name2": null, "adm4_name3": null, "adm4_pcode": null, "adm3_name": null, "adm3_name1": null, "adm3_name2": null, "adm3_name3": null, "adm3_pcode": null, "adm2_name": "F'Deirick", "adm2_name1": null, "adm2_name2": null, "adm2_name3": null, "adm2_pcode": "MR112", "adm1_name": "Tiris Zemmour", "adm1_name1": null, "adm1_name2": null, "adm1_name3": null, "adm1_pcode": "MR11", "adm0_name": "Mauritanie", "adm0_name1": null, "adm0_name2": null, "adm0_name3": null, "adm0_pcode": "MR", "valid_on": "2024-03-27", "valid_to": null, "version": "v03", "lang": "fr", "lang1": null, "lang2": null, "lang3": null }, "geometry": { "type": "Point", "coordinates": [ -10.604567157999952, 23.199471419000133 ] } },
{ "type": "Feature", "properties": { "admin_level": 2, "name": "Tekane", "name1": null, "name2": null, "name3": null, "x_coord": -15.16994256, "y_coord": 16.74201698, "adm4_name": null, "adm4_name1": null, "adm4_name2": null, "adm4_name3": null, "adm4_pcode": null, "adm3_name": null, "adm3_name1": null, "adm3_name2": null, "adm3_name3": null, "adm3_pcode": null, "adm2_name": "Tekane", "adm2_name1": null, "adm2_name2": null, "adm2_name3": null, "adm2_pcode": "MR067", "adm1_name": "Trarza", "adm1_name1": null, "adm1_name2": null, "adm1_name3": null, "adm1_pcode": "MR06", "adm0_name": "Mauritanie", "adm0_name1": null, "adm0_name2": null, "adm0_name3": null, "adm0_pcode": "MR", "valid_on": "2024-03-27", "valid_to": null, "version": "v03", "lang": "fr", "lang1": null, "lang2": null, "lang3": null }, "geometry": { "type": "Point", "coordinates": [ -15.169942556999956, 16.742016977000048 ] } },
{ "type": "Feature", "properties": { "admin_level": 2, "name": "Boutilimit", "name1": null, "name2": null, "name3": null, "x_coord": -14.32805975, "y_coord": 17.90905941, "adm4_name": null, "adm4_name1": null, "adm4_name2": null, "adm4_name3": null, "adm4_pcode": null, "adm3_name": null, "adm3_name1": null, "adm3_name2": null, "adm3_name3": null, "adm3_pcode": null, "adm2_name": "Boutilimit", "adm2_name1": null, "adm2_name2": null, "adm2_name3": null, "adm2_pcode": "MR061", "adm1_name": "Trarza", "adm1_name1": null, "adm1_name2": null, "adm1_name3": null, "adm1_pcode": "MR06", "adm0_name": "Mauritanie", "adm0_name1": null, "adm0_name2": null, "adm0_name3": null, "adm0_pcode": "MR", "valid_on": "2024-03-27", "valid_to": null, "version": "v03", "lang": "fr", "lang1": null, "lang2": null, "lang3": null }, "geometry": { "type": "Point", "coordinates": [ -14.32805975399998, 17.909059409000065 ] } },
{ "type": "Feature", "properties": { "admin_level": 2, "name": "Keur Macen", "name1": null, "name2": null, "name3": null, "x_coord": -16.3094895, "y_coord": 16.52750332, "adm4_name": null, "adm4_name1": null, "adm4_name2": null, "adm4_name3": null, "adm4_pcode": null, "adm3_name": null, "adm3_name1": null, "adm3_name2": null, "adm3_name3": null, "adm3_pcode": null, "adm2_name": "Keur Macen", "adm2_name1": null, "adm2_name2": null, "adm2_name3": null, "adm2_pcode": "MR062", "adm1_name": "Trarza", "adm1_name1": null, "adm1_name2": null, "adm1_name3": null, "adm1_pcode": "MR06", "adm0_name": "Mauritanie", "adm0_name1": null, "adm0_name2": null, "adm0_name3": null, "adm0_pcode": "MR", "valid_on": "2024-03-27", "valid_to": null, "version": "v03", "lang": "fr", "lang1": null, "lang2": null, "lang3": null }, "geometry": { "type": "Point", "coordinates": [ -16.309489498999937, 16.527503316000036 ] } },
{ "type": "Feature", "properties": { "admin_level": 2, "name": "Ouad Naga", "name1": null, "name2": null, "name3": null, "x_coord": -15.42219743, "y_coord": 18.11650651, "adm4_name": null, "adm4_name1": null, "adm4_name2": null, "adm4_name3": null, "adm4_pcode": null, "adm3_name": null, "adm3_name1": null, "adm3_name2": null, "adm3_name3": null, "adm3_pcode": null, "adm2_name": "Ouad Naga", "adm2_name1": null, "adm2_name2": null, "adm2_name3": null, "adm2_pcode": "MR064", "adm1_name": "Trarza", "adm1_name1": null, "adm1_name2": null, "adm1_name3": null, "adm1_pcode": "MR06", "adm0_name": "Mauritanie", "adm0_name1": null, "adm0_name2": null, "adm0_name3": null, "adm0_pcode": "MR", "valid_on": "2024-03-27", "valid_to": null, "version": "v03", "lang": "fr", "lang1": null, "lang2": null, "lang3": null }, "geometry": { "type": "Point", "coordinates": [ -15.422197433999941, 18.116506507999986 ] } },
{ "type": "Feature", "properties": { "admin_level": 2, "name": "Mederdra", "name1": null, "name2": null, "name3": null, "x_coord": -15.77141038, "y_coord": 17.11965529, "adm4_name": null, "adm4_name1": null, "adm4_name2": null, "adm4_name3": null, "adm4_pcode": null, "adm3_name": null, "adm3_name1": null, "adm3_name2": null, "adm3_name3": null, "adm3_pcode": null, "adm2_name": "Mederdra", "adm2_name1": null, "adm2_name2": null, "adm2_name3": null, "adm2_pcode": "MR063", "adm1_name": "Trarza", "adm1_name1": null, "adm1_name2": null, "adm1_name3": null, "adm1_pcode": "MR06", "adm0_name": "Mauritanie", "adm0_name1": null, "adm0_name2": null, "adm0_name3": null, "adm0_pcode": "MR", "valid_on": "2024-03-27", "valid_to": null, "version": "v03", "lang": "fr", "lang1": null, "lang2": null, "lang3": null }, "geometry": { "type": "Point", "coordinates": [ -15.771410378999917, 17.119655286000125 ] } },
{ "type": "Feature", "properties": { "admin_level": 2, "name": "R'Kiz", "name1": null, "name2": null, "name3": null, "x_coord": -14.99717983, "y_coord": 17.10725822, "adm4_name": null, "adm4_name1": null, "adm4_name2": null, "adm4_name3": null, "adm4_pcode": null, "adm3_name": null, "adm3_name1": null, "adm3_name2": null, "adm3_name3": null, "adm3_pcode": null, "adm2_name": "R'Kiz", "adm2_name1": null, "adm2_name2": null, "adm2_name3": null, "adm2_pcode": "MR065", "adm1_name": "Trarza", "adm1_name1": null, "adm1_name2": null, "adm1_name3": null, "adm1_pcode": "MR06", "adm0_name": "Mauritanie", "adm0_name1": null, "adm0_name2": null, "adm0_name3": null, "adm0_pcode": "MR", "valid_on": "2024-03-27", "valid_to": null, "version": "v03", "lang": "fr", "lang1": null, "lang2": null, "lang3": null }, "geometry": { "type": "Point", "coordinates": [ -14.997179833999951, 17.10725821900013 ] } },
{ "type": "Feature", "properties": { "admin_level": 2, "name": "Rosso", "name1": null, "name2": null, "name3": null, "x_coord": -15.69786714, "y_coord": 16.65449364, "adm4_name": null, "adm4_name1": null, "adm4_name2": null, "adm4_name3": null, "adm4_pcode": null, "adm3_name": null, "adm3_name1": null, "adm3_name2": null, "adm3_name3": null, "adm3_pcode": null, "adm2_name": "Rosso", "adm2_name1": null, "adm2_name2": null, "adm2_name3": null, "adm2_pcode": "MR066", "adm1_name": "Trarza", "adm1_name1": null, "adm1_name2": null, "adm1_name3": null, "adm1_pcode": "MR06", "adm0_name": "Mauritanie", "adm0_name1": null, "adm0_name2": null, "adm0_name3": null, "adm0_pcode": "MR", "valid_on": "2024-03-27", "valid_to": null, "version": "v03", "lang": "fr", "lang1": null, "lang2": null, "lang3": null }, "geometry": { "type": "Point", "coordinates": [ -15.697867139999914, 16.654493642000091 ] } }
]
}
